startedAt,vendor,model,osversion,installationId,imsi,unknown,subscriber.mcc,subscriber.mnc,subscriber.operator,network.mcc,network.mnc,network.operator,latency,downlink,uplink,latitude,longitude,privateIP,publicIP,measurementServer,radiotech,signal,strength,area_code,cellID,GSM,RSSI,GSM_BER,GSM_receive_power,WDCMA_ASU,WCDMA_receive_power,LTE_ASU,LTE_RSRP,LTE_CQI_LTE_RSPQ
2017-01-20 13:14:50,samsung,SM-G920F,6.0.1,84884dd4-59f6-4656-9949-249df8f4bc67,HqZ8qNQO0Uyb4JGeFXR2nBHls/mHNaLBhpFfn4nH/wE=,1.1427994206991E+020,268,1,Vodafone,262,2,Vodafone,35.9,11769.525,78697.8784547739,-,-,192.168.1.106,141.84.69.88,54.216.74.160,0,100,48030,21289985,-,-,-,-,-,97,113,2,-9,-1
2017-01-20 12:44:50,samsung,SM-G920F,6.0.1,84884dd4-59f6-4656-9949-249df8f4bc67,HqZ8qNQO0Uyb4JGeFXR2nBHls/mHNaLBhpFfn4nH/wE=,1.1427994206991E+020,268,1,Vodafone,262,2,Vodafone,36.3,19281.025,79415.1099246231,-,-,192.168.1.106,141.84.69.88,54.216.74.160,0,100,48030,21289985,-,-,-,-,-,97,115,2,-11,0
2017-01-20 12:14:49,samsung,SM-G920F,6.0.1,84884dd4-59f6-4656-9949-249df8f4bc67,HqZ8qNQO0Uyb4JGeFXR2nBHls/mHNaLBhpFfn4nH/wE=,1.1427994206991E+020,268,1,Vodafone,262,2,Vodafone,38.3,14174.5625,45413.1721105528,-,-,192.168.1.106,141.84.69.88,54.216.74.160,0,100,48030,21289985,-,-,-,-,-,97,113,2,-8,0
2017-01-20 11:44:49,samsung,SM-G920F,6.0.1,84884dd4-59f6-4656-9949-249df8f4bc67,HqZ8qNQO0Uyb4JGeFXR2nBHls/mHNaLBhpFfn4nH/wE=,1.1427994206991E+020,268,1,Vodafone,262,2,Vodafone,35.5,17500.425,51567.4576005025,-,-,192.168.1.106,141.84.69.88,54.78.38.85,0,100,48030,20747010,-,-,-,-,-,97,115,2,-11,-2
2017-01-20 11:04:51,samsung,SM-G920F,6.0.1,84884dd4-59f6-4656-9949-249df8f4bc67,HqZ8qNQO0Uyb4JGeFXR2nBHls/mHNaLBhpFfn4nH/wE=,1.1427994206991E+020,268,1,Vodafone,262,2,Vodafone,34.6,20715.45,44498.8065326633,-,-,192.168.1.106,141.84.69.88,54.216.74.160,0,100,48030,21289985,-,-,-,-,-,97,116,2,-11,0
2017-01-20 10:50:43,samsung,SM-G920F,6.0.1,84884dd4-59f6-4656-9949-249df8f4bc67,HqZ8qNQO0Uyb4JGeFXR2nBHls/mHNaLBhpFfn4nH/wE=,1.1427994206991E+020,268,1,Vodafone,262,2,Vodafone,35.6,17728.95,23502.5047110553,-,-,192.168.1.106,141.84.69.88,54.216.74.160,0,29,893,10432,9,99,-51,-,-,-,-,-,-,-
2017-01-20 10:04:50,samsung,SM-G920F,6.0.1,84884dd4-59f6-4656-9949-249df8f4bc67,HqZ8qNQO0Uyb4JGeFXR2nBHls/mHNaLBhpFfn4nH/wE=,1.1427994206991E+020,268,1,Vodafone,262,2,Vodafone,35.7,15154.225,80511.6221733668,-,-,192.168.1.106,141.84.69.88,54.216.74.160,0,100,48030,21250817,-,-,-,-,-,97,114,2,-10,1
2017-01-20 09:34:50,samsung,SM-G920F,6.0.1,84884dd4-59f6-4656-9949-249df8f4bc67,HqZ8qNQO0Uyb4JGeFXR2nBHls/mHNaLBhpFfn4nH/wE=,1.1427994206991E+020,268,1,Vodafone,262,2,Vodafone,34.5,32020.0375,60820.6469849246,-,-,192.168.1.106,141.84.69.88,54.216.74.160,0,100,48030,21250817,-,-,-,-,-,97,115,2,-10,2
2017-01-20 09:04:50,samsung,SM-G920F,6.0.1,84884dd4-59f6-4656-9949-249df8f4bc67,HqZ8qNQO0Uyb4JGeFXR2nBHls/mHNaLBhpFfn4nH/wE=,1.1427994206991E+020,268,1,Vodafone,262,2,Vodafone,36.4,20928.125,48470.2010050251,-,-,192.168.1.106,141.84.69.88,54.216.74.160,0,100,48030,21250817,-,-,-,-,-,97,117,2,-14,-4
2017-01-20 09:03:52,samsung,SM-G920F,6.0.1,84884dd4-59f6-4656-9949-249df8f4bc67,HqZ8qNQO0Uyb4JGeFXR2nBHls/mHNaLBhpFfn4nH/wE=,1.1427994206991E+020,268,1,Vodafone,262,2,Vodafone,82,28265.825,46281.4604271357,-,-,192.168.1.106,141.84.69.88,54.216.74.160,0,100,48030,21250817,-,-,-,-,-,97,111,2,-9,-5
2017-01-20 08:04:49,samsung,SM-G920F,6.0.1,84884dd4-59f6-4656-9949-249df8f4bc67,HqZ8qNQO0Uyb4JGeFXR2nBHls/mHNaLBhpFfn4nH/wE=,1.1427994206991E+020,268,1,Vodafone,262,2,Vodafone,35.4,19129.4375,80443.6102386935,-,-,192.168.1.106,141.84.69.88,54.216.74.160,0,100,48030,21250817,-,-,-,-,-,97,109,2,-8,2
2017-01-20 07:34:50,samsung,SM-G920F,6.0.1,84884dd4-59f6-4656-9949-249df8f4bc67,HqZ8qNQO0Uyb4JGeFXR2nBHls/mHNaLBhpFfn4nH/wE=,1.1427994206991E+020,268,1,Vodafone,262,2,Vodafone,37.7,19106.8125,72716.9221105528,-,-,192.168.1.106,141.84.69.88,54.216.74.160,0,100,48030,21250817,-,-,-,-,-,97,110,2,-9,2
2017-01-20 07:04:49,samsung,SM-G920F,6.0.1,84884dd4-59f6-4656-9949-249df8f4bc67,HqZ8qNQO0Uyb4JGeFXR2nBHls/mHNaLBhpFfn4nH/wE=,1.1427994206991E+020,268,1,Vodafone,262,2,Vodafone,35.7,17753.8375,48055.5056532663,-,-,192.168.1.106,141.84.69.88,54.216.74.160,0,100,48030,21250817,-,-,-,-,-,97,114,2,-15,-3
2017-01-20 06:29:49,samsung,SM-G920F,6.0.1,84884dd4-59f6-4656-9949-249df8f4bc67,HqZ8qNQO0Uyb4JGeFXR2nBHls/mHNaLBhpFfn4nH/wE=,1.1427994206991E+020,268,1,Vodafone,262,2,Vodafone,35.2,18495.9375,38990.4695351759,-,-,192.168.1.106,141.84.69.88,54.78.38.85,0,29,893,10432,9,99,-51,-,-,-,-,-,-,-
2017-01-20 05:59:50,samsung,SM-G920F,6.0.1,84884dd4-59f6-4656-9949-249df8f4bc67,HqZ8qNQO0Uyb4JGeFXR2nBHls/mHNaLBhpFfn4nH/wE=,1.1427994206991E+020,268,1,Vodafone,262,2,Vodafone,34.6,25797.025,35000.4695351759,-,-,192.168.1.106,141.84.69.88,54.216.74.160,0,29,893,31641,9,99,-51,-,-,-,-,-,-,-
2017-01-20 05:26:07,samsung,SM-G920F,6.0.1,84884dd4-59f6-4656-9949-249df8f4bc67,HqZ8qNQO0Uyb4JGeFXR2nBHls/mHNaLBhpFfn4nH/wE=,1.1427994206991E+020,268,1,Vodafone,262,2,Vodafone,34.8,29019.5125,80352.0555904523,-,-,192.168.1.106,141.84.69.88,54.216.74.160,0,29,893,31641,9,99,-51,-,-,-,-,-,-,-
2017-01-20 04:56:08,samsung,SM-G920F,6.0.1,84884dd4-59f6-4656-9949-249df8f4bc67,HqZ8qNQO0Uyb4JGeFXR2nBHls/mHNaLBhpFfn4nH/wE=,1.1427994206991E+020,268,1,Vodafone,262,2,Vodafone,35.2,25377.25,44771.2311557789,-,-,192.168.1.106,141.84.69.88,54.216.74.160,0,100,48030,21250817,-,-,-,-,-,97,112,2,-8,2
2017-01-20 04:26:07,samsung,SM-G920F,6.0.1,84884dd4-59f6-4656-9949-249df8f4bc67,HqZ8qNQO0Uyb4JGeFXR2nBHls/mHNaLBhpFfn4nH/wE=,1.1427994206991E+020,268,1,Vodafone,262,2,Vodafone,34.1,13629.3,57862.8737437186,-,-,192.168.1.106,141.84.69.88,54.216.74.160,0,100,48030,21250817,-,-,-,-,-,97,112,2,-9,-2
2017-01-20 03:56:08,samsung,SM-G920F,6.0.1,84884dd4-59f6-4656-9949-249df8f4bc67,HqZ8qNQO0Uyb4JGeFXR2nBHls/mHNaLBhpFfn4nH/wE=,1.1427994206991E+020,268,1,Vodafone,262,2,Vodafone,33.7,28961.4625,45235.7977386935,-,-,192.168.1.106,141.84.69.88,54.216.74.160,0,100,48030,21250817,-,-,-,-,-,97,112,2,-8,2
2017-01-20 03:33:43,samsung,SM-G920F,6.0.1,84884dd4-59f6-4656-9949-249df8f4bc67,HqZ8qNQO0Uyb4JGeFXR2nBHls/mHNaLBhpFfn4nH/wE=,1.1427994206991E+020,268,1,Vodafone,262,2,Vodafone,34.1,27562.425,55282.4183417085,-,-,192.168.1.106,141.84.69.88,54.216.74.160,0,100,48030,21250817,-,-,-,-,-,97,112,2,-9,2
2017-01-20 02:56:06,samsung,SM-G920F,6.0.1,84884dd4-59f6-4656-9949-249df8f4bc67,HqZ8qNQO0Uyb4JGeFXR2nBHls/mHNaLBhpFfn4nH/wE=,1.1427994206991E+020,268,1,Vodafone,262,2,Vodafone,34.3,26166.5375,43764.3797110553,-,-,192.168.1.106,141.84.69.88,54.216.74.160,0,100,48030,21250817,-,-,-,-,-,97,113,2,-9,2
2017-01-20 02:26:06,samsung,SM-G920F,6.0.1,84884dd4-59f6-4656-9949-249df8f4bc67,HqZ8qNQO0Uyb4JGeFXR2nBHls/mHNaLBhpFfn4nH/wE=,1.1427994206991E+020,268,1,Vodafone,262,2,Vodafone,34.5,26226.9,52509.6372487437,-,-,192.168.1.106,141.84.69.88,54.216.74.160,0,100,48030,21250817,-,-,-,-,-,97,112,2,-9,2
2017-01-20 01:56:08,samsung,SM-G920F,6.0.1,84884dd4-59f6-4656-9949-249df8f4bc67,HqZ8qNQO0Uyb4JGeFXR2nBHls/mHNaLBhpFfn4nH/wE=,1.1427994206991E+020,268,1,Vodafone,262,2,Vodafone,35.8,16918.975,43847.7528266332,-,-,192.168.1.106,141.84.69.88,54.216.74.160,0,100,48030,21250817,-,-,-,-,-,97,112,2,-9,3
2017-01-20 01:41:03,samsung,SM-G920F,6.0.1,84884dd4-59f6-4656-9949-249df8f4bc67,HqZ8qNQO0Uyb4JGeFXR2nBHls/mHNaLBhpFfn4nH/wE=,1.1427994206991E+020,268,1,Vodafone,262,2,Vodafone,35.1,7355.3875,46245.4004396985,-,-,192.168.1.106,141.84.69.88,54.216.74.160,0,100,48030,21250817,-,-,-,-,-,97,112,2,-9,2
2017-01-20 01:12:03,samsung,SM-G920F,6.0.1,84884dd4-59f6-4656-9949-249df8f4bc67,HqZ8qNQO0Uyb4JGeFXR2nBHls/mHNaLBhpFfn4nH/wE=,1.1427994206991E+020,268,1,Vodafone,262,2,Vodafone,34.4,17278.7125,39606.9315326633,-,-,192.168.1.106,141.84.69.88,54.78.38.85,0,100,48030,21250817,-,-,-,-,-,97,113,2,-9,2
2017-01-20 00:40:19,samsung,SM-G920F,6.0.1,84884dd4-59f6-4656-9949-249df8f4bc67,HqZ8qNQO0Uyb4JGeFXR2nBHls/mHNaLBhpFfn4nH/wE=,1.1427994206991E+020,268,1,Vodafone,262,2,Vodafone,,0,0,-,-,-,-,54.216.74.160,0,100,48030,21250817,-,-,-,-,-,97,113,2,-9,1
2017-01-19 23:34:50,samsung,SM-G920F,6.0.1,84884dd4-59f6-4656-9949-249df8f4bc67,HqZ8qNQO0Uyb4JGeFXR2nBHls/mHNaLBhpFfn4nH/wE=,1.1427994206991E+020,268,1,Vodafone,262,2,Vodafone,36.4,7176.65,76723.4453517588,-,-,192.168.1.106,141.84.69.88,54.216.74.160,0,100,48030,21289985,-,-,-,-,-,97,113,2,-12,-1
2017-01-19 23:04:50,samsung,SM-G920F,6.0.1,84884dd4-59f6-4656-9949-249df8f4bc67,HqZ8qNQO0Uyb4JGeFXR2nBHls/mHNaLBhpFfn4nH/wE=,1.1427994206991E+020,268,1,Vodafone,262,2,Vodafone,44.5,8061.2875,20475.3957286432,-,-,192.168.1.106,141.84.69.88,54.216.74.160,0,100,48030,21250817,-,-,-,-,-,97,111,2,-10,-2
2017-01-19 22:34:50,samsung,SM-G920F,6.0.1,84884dd4-59f6-4656-9949-249df8f4bc67,HqZ8qNQO0Uyb4JGeFXR2nBHls/mHNaLBhpFfn4nH/wE=,1.1427994206991E+020,268,1,Vodafone,262,2,Vodafone,36.4,3167.5,14488.9871231156,-,-,192.168.1.106,141.84.69.88,54.216.74.160,0,100,48030,21250817,-,-,-,-,-,97,110,2,-9,-2
2017-01-19 21:39:49,samsung,SM-G920F,6.0.1,84884dd4-59f6-4656-9949-249df8f4bc67,HqZ8qNQO0Uyb4JGeFXR2nBHls/mHNaLBhpFfn4nH/wE=,1.1427994206991E+020,268,1,Vodafone,262,2,Vodafone,45.1,2362.05,12964.0483668342,-,-,192.168.1.106,141.84.69.88,54.78.38.85,0,100,48030,21250817,-,-,-,-,-,97,113,2,-11,-2
2017-01-19 21:09:49,samsung,SM-G920F,6.0.1,84884dd4-59f6-4656-9949-249df8f4bc67,HqZ8qNQO0Uyb4JGeFXR2nBHls/mHNaLBhpFfn4nH/wE=,1.1427994206991E+020,268,1,Vodafone,262,2,Vodafone,41.1,3339.45,68404.0405150754,-,-,192.168.1.106,141.84.69.88,54.216.74.160,0,100,48030,21250817,-,-,-,-,-,97,106,2,-8,4
2017-01-19 20:39:49,samsung,SM-G920F,6.0.1,84884dd4-59f6-4656-9949-249df8f4bc67,HqZ8qNQO0Uyb4JGeFXR2nBHls/mHNaLBhpFfn4nH/wE=,1.1427994206991E+020,268,1,Vodafone,262,2,Vodafone,39.7,3124.5125,73667.0351758794,-,-,192.168.1.106,141.84.69.88,54.78.38.85,0,100,,,-,-,-,-,-,97,106,2,-10,1
2017-01-17 23:42:13,samsung,SM-G920F,6.0.1,84884dd4-59f6-4656-9949-249df8f4bc67,HqZ8qNQO0Uyb4JGeFXR2nBHls/mHNaLBhpFfn4nH/wE=,1.1427994206991E+020,268,1,Vodafone,262,2,Vodafone,37,11382.6375,42191.6975502513,-,-,192.168.1.106,141.84.69.88,54.216.74.160,0,100,48035,21071361,-,-,-,-,-,97,108,2,-8,7
2017-01-17 23:12:13,samsung,SM-G920F,6.0.1,84884dd4-59f6-4656-9949-249df8f4bc67,HqZ8qNQO0Uyb4JGeFXR2nBHls/mHNaLBhpFfn4nH/wE=,1.1427994206991E+020,268,1,Vodafone,262,2,Vodafone,38.5,8570.35,36164.9073492462,-,-,192.168.1.106,141.84.69.88,54.216.74.160,0,100,48030,21250817,-,-,-,-,-,97,112,2,-9,-2
2017-01-17 22:42:14,samsung,SM-G920F,6.0.1,84884dd4-59f6-4656-9949-249df8f4bc67,HqZ8qNQO0Uyb4JGeFXR2nBHls/mHNaLBhpFfn4nH/wE=,1.1427994206991E+020,268,1,Vodafone,262,2,Vodafone,45.1,3950.325,30562.9208542714,-,-,192.168.1.106,141.84.69.88,54.216.74.160,0,100,48030,21250817,-,-,-,-,-,97,106,2,-7,4
2017-01-17 22:12:15,samsung,SM-G920F,6.0.1,84884dd4-59f6-4656-9949-249df8f4bc67,HqZ8qNQO0Uyb4JGeFXR2nBHls/mHNaLBhpFfn4nH/wE=,1.1427994206991E+020,268,1,Vodafone,262,2,Vodafone,40.7,3638.1,22574.277638191,-,-,192.168.1.106,141.84.69.88,54.216.74.160,0,100,48030,21250817,-,-,-,-,-,97,107,2,-7,3
2017-01-17 21:42:14,samsung,SM-G920F,6.0.1,84884dd4-59f6-4656-9949-249df8f4bc67,HqZ8qNQO0Uyb4JGeFXR2nBHls/mHNaLBhpFfn4nH/wE=,1.1427994206991E+020,268,1,Vodafone,262,2,Vodafone,45.4,1814.525,39468.2035175879,-,-,192.168.1.106,141.84.69.88,54.216.74.160,0,100,48030,21250817,-,-,-,-,-,97,107,2,-9,-4
2017-01-17 20:51:34,samsung,SM-G920F,6.0.1,84884dd4-59f6-4656-9949-249df8f4bc67,HqZ8qNQO0Uyb4JGeFXR2nBHls/mHNaLBhpFfn4nH/wE=,1.1427994206991E+020,268,1,Vodafone,262,2,Vodafone,40.3,1337.1375,41002.0650125628,-,-,192.168.1.106,141.84.69.88,54.216.74.160,0,100,48030,21250817,-,-,-,-,-,97,111,2,-8,-1
2017-01-17 20:21:33,samsung,SM-G920F,6.0.1,84884dd4-59f6-4656-9949-249df8f4bc67,HqZ8qNQO0Uyb4JGeFXR2nBHls/mHNaLBhpFfn4nH/wE=,1.1427994206991E+020,268,1,Vodafone,262,2,Vodafone,47.4,2142.5875,42502.3555276382,-,-,192.168.1.106,141.84.69.88,54.216.74.160,0,100,48030,21250817,-,-,-,-,-,97,110,2,-9,1
2017-01-17 20:20:57,samsung,SM-G920F,6.0.1,84884dd4-59f6-4656-9949-249df8f4bc67,HqZ8qNQO0Uyb4JGeFXR2nBHls/mHNaLBhpFfn4nH/wE=,1.1427994206991E+020,268,1,Vodafone,262,2,Vodafone,41.5,4466.175,20531.7289572864,-,-,192.168.1.106,141.84.69.88,54.216.74.160,0,100,,,-,-,-,-,-,97,108,2,-8,1
2017-01-17 19:51:34,samsung,SM-G920F,6.0.1,84884dd4-59f6-4656-9949-249df8f4bc67,HqZ8qNQO0Uyb4JGeFXR2nBHls/mHNaLBhpFfn4nH/wE=,1.1427994206991E+020,268,1,Vodafone,262,2,Vodafone,41,1719.5,42648.7923994975,-,-,192.168.1.106,141.84.69.88,54.78.38.85,0,100,48030,21250817,-,-,-,-,-,97,111,2,-10,-3
2017-01-17 19:21:01,samsung,SM-G920F,6.0.1,84884dd4-59f6-4656-9949-249df8f4bc67,HqZ8qNQO0Uyb4JGeFXR2nBHls/mHNaLBhpFfn4nH/wE=,1.1427994206991E+020,268,1,Vodafone,262,2,Vodafone,37,4235.4,71146.6001884422,-,-,192.168.1.106,141.84.69.88,54.216.74.160,0,100,48030,21250817,-,-,-,-,-,97,117,2,-13,-6
2017-01-17 18:42:12,samsung,SM-G920F,6.0.1,84884dd4-59f6-4656-9949-249df8f4bc67,HqZ8qNQO0Uyb4JGeFXR2nBHls/mHNaLBhpFfn4nH/wE=,1.1427994206991E+020,268,1,Vodafone,262,2,Vodafone,35.7,5104.2,70729.5383165829,-,-,192.168.1.106,141.84.69.88,54.216.74.160,0,100,48030,21250817,-,-,-,-,-,97,114,2,-11,1
2017-01-17 17:52:09,samsung,SM-G920F,6.0.1,84884dd4-59f6-4656-9949-249df8f4bc67,HqZ8qNQO0Uyb4JGeFXR2nBHls/mHNaLBhpFfn4nH/wE=,1.1427994206991E+020,268,1,Vodafone,262,2,Vodafone,,,,-,-,-,-,,0,100,48030,21289987,-,-,-,-,-,97,115,2,-11,6
2017-01-17 17:07:10,samsung,SM-G920F,6.0.1,84884dd4-59f6-4656-9949-249df8f4bc67,HqZ8qNQO0Uyb4JGeFXR2nBHls/mHNaLBhpFfn4nH/wE=,1.1427994206991E+020,268,1,Vodafone,262,2,Vodafone,38,14236.7,57327.3351130653,-,-,131.159.199.38,131.159.199.38,54.216.74.160,0,100,8306,246168303,-,-,-,31,-51,-,-,-,-,-
2017-01-17 16:37:10,samsung,SM-G920F,6.0.1,84884dd4-59f6-4656-9949-249df8f4bc67,HqZ8qNQO0Uyb4JGeFXR2nBHls/mHNaLBhpFfn4nH/wE=,1.1427994206991E+020,268,1,Vodafone,262,2,Vodafone,41.2,5565.75,48720.051821608,-,-,131.159.199.38,131.159.199.38,54.216.74.160,0,100,8306,246168303,-,-,-,31,-51,-,-,-,-,-
2017-01-17 16:07:09,samsung,SM-G920F,6.0.1,84884dd4-59f6-4656-9949-249df8f4bc67,HqZ8qNQO0Uyb4JGeFXR2nBHls/mHNaLBhpFfn4nH/wE=,1.1427994206991E+020,268,1,Vodafone,262,2,Vodafone,42.5,11421.1,52640.3109296482,-,-,131.159.199.38,131.159.199.38,54.78.38.85,0,100,8306,246168299,-,-,-,31,-51,-,-,-,-,-
2017-01-17 15:37:09,samsung,SM-G920F,6.0.1,84884dd4-59f6-4656-9949-249df8f4bc67,HqZ8qNQO0Uyb4JGeFXR2nBHls/mHNaLBhpFfn4nH/wE=,1.1427994206991E+020,268,1,Vodafone,262,2,Vodafone,,2.2625,0,-,-,131.159.199.38,131.159.199.38,54.216.74.160,0,100,8306,246168303,-,-,-,31,-51,-,-,-,-,-
2017-01-17 14:37:10,samsung,SM-G920F,6.0.1,84884dd4-59f6-4656-9949-249df8f4bc67,HqZ8qNQO0Uyb4JGeFXR2nBHls/mHNaLBhpFfn4nH/wE=,1.1427994206991E+020,268,1,Vodafone,262,2,Vodafone,386.6666666667,7249.05,24102.675879397,-,-,131.159.199.38,131.159.199.38,54.78.38.85,0,100,8306,246168299,-,-,-,31,-51,-,-,-,-,-
2017-01-17 13:47:09,samsung,SM-G920F,6.0.1,84884dd4-59f6-4656-9949-249df8f4bc67,HqZ8qNQO0Uyb4JGeFXR2nBHls/mHNaLBhpFfn4nH/wE=,1.1427994206991E+020,268,1,Vodafone,262,2,Vodafone,44.3,5696.975,22284.368718593,-,-,131.159.199.38,131.159.199.38,54.78.38.85,0,100,8306,246168299,-,-,-,31,-51,-,-,-,-,-
2017-01-15 07:27:48,samsung,SM-G920F,6.0.1,84884dd4-59f6-4656-9949-249df8f4bc67,HqZ8qNQO0Uyb4JGeFXR2nBHls/mHNaLBhpFfn4nH/wE=,1.1427994206991E+020,268,1,Vodafone,262,2,Vodafone,33.8,23220.45,77639.1347361809,-,-,192.168.1.106,141.84.69.88,54.216.74.160,0,100,48030,21250817,-,-,-,-,-,97,110,2,-8,4
2017-01-15 06:57:49,samsung,SM-G920F,6.0.1,84884dd4-59f6-4656-9949-249df8f4bc67,HqZ8qNQO0Uyb4JGeFXR2nBHls/mHNaLBhpFfn4nH/wE=,1.1427994206991E+020,268,1,Vodafone,262,2,Vodafone,35.5,18939.3875,83557.0838567839,-,-,192.168.1.106,141.84.69.88,54.216.74.160,0,100,48030,21250817,-,-,-,-,-,97,111,2,-9,4
2017-01-15 06:27:48,samsung,SM-G920F,6.0.1,84884dd4-59f6-4656-9949-249df8f4bc67,HqZ8qNQO0Uyb4JGeFXR2nBHls/mHNaLBhpFfn4nH/wE=,1.1427994206991E+020,268,1,Vodafone,262,2,Vodafone,34.3,23721.2625,81554.8209798995,-,-,192.168.1.106,141.84.69.88,54.78.38.85,0,100,48030,21250817,-,-,-,-,-,97,110,2,-8,2
2017-01-15 05:57:49,samsung,SM-G920F,6.0.1,84884dd4-59f6-4656-9949-249df8f4bc67,HqZ8qNQO0Uyb4JGeFXR2nBHls/mHNaLBhpFfn4nH/wE=,1.1427994206991E+020,268,1,Vodafone,262,2,Vodafone,35.1,26193.775,75201.3253768844,-,-,192.168.1.106,141.84.69.88,54.216.74.160,0,100,48030,21250817,-,-,-,-,-,97,111,2,-9,2
2017-01-15 05:28:18,samsung,SM-G920F,6.0.1,84884dd4-59f6-4656-9949-249df8f4bc67,HqZ8qNQO0Uyb4JGeFXR2nBHls/mHNaLBhpFfn4nH/wE=,1.1427994206991E+020,268,1,Vodafone,262,2,Vodafone,36.6,19199.775,81713.9243090452,-,-,192.168.1.106,141.84.69.88,54.216.74.160,0,100,48030,21250817,-,-,-,-,-,97,110,2,-8,2
2017-01-15 04:58:45,samsung,SM-G920F,6.0.1,84884dd4-59f6-4656-9949-249df8f4bc67,HqZ8qNQO0Uyb4JGeFXR2nBHls/mHNaLBhpFfn4nH/wE=,1.1427994206991E+020,268,1,Vodafone,262,2,Vodafone,34.5,30142.7875,73104.3640075377,-,-,192.168.1.106,141.84.69.88,54.216.74.160,0,100,48030,21250817,-,-,-,-,-,97,110,2,-8,3
2017-01-15 04:32:09,samsung,SM-G920F,6.0.1,84884dd4-59f6-4656-9949-249df8f4bc67,HqZ8qNQO0Uyb4JGeFXR2nBHls/mHNaLBhpFfn4nH/wE=,1.1427994206991E+020,268,1,Vodafone,262,2,Vodafone,37.8,22878.4,73549.8869346734,-,-,192.168.1.106,141.84.69.88,54.78.38.85,0,100,48030,21250817,-,-,-,-,-,97,111,2,-9,3
2017-01-15 04:03:11,samsung,SM-G920F,6.0.1,84884dd4-59f6-4656-9949-249df8f4bc67,HqZ8qNQO0Uyb4JGeFXR2nBHls/mHNaLBhpFfn4nH/wE=,1.1427994206991E+020,268,1,Vodafone,262,2,Vodafone,36.6,22362.55,73764.4315326633,-,-,192.168.1.106,141.84.69.88,54.216.74.160,0,100,48030,21250817,-,-,-,-,-,97,111,2,-9,3
2017-01-14 07:02:00,samsung,SM-G920F,6.0.1,84884dd4-59f6-4656-9949-249df8f4bc67,HqZ8qNQO0Uyb4JGeFXR2nBHls/mHNaLBhpFfn4nH/wE=,1.1427994206991E+020,268,1,Vodafone,262,2,Vodafone,34.7,29729.1375,67908.4217964824,-,-,192.168.1.106,141.84.69.88,54.78.38.85,0,100,48030,21250817,-,-,-,-,-,97,113,2,-9,4
2017-01-14 06:30:00,samsung,SM-G920F,6.0.1,84884dd4-59f6-4656-9949-249df8f4bc67,HqZ8qNQO0Uyb4JGeFXR2nBHls/mHNaLBhpFfn4nH/wE=,1.1427994206991E+020,268,1,Vodafone,262,2,Vodafone,34,23405.5625,79347.5863693467,-,-,192.168.1.106,141.84.69.88,54.216.74.160,0,100,48030,21250817,-,-,-,-,-,97,113,2,-10,4
2017-01-13 19:27:09,samsung,SM-G920F,6.0.1,84884dd4-59f6-4656-9949-249df8f4bc67,HqZ8qNQO0Uyb4JGeFXR2nBHls/mHNaLBhpFfn4nH/wE=,1.1427994206991E+020,268,1,Vodafone,262,2,Vodafone,38.3,20946.3375,79310.0439698493,-,-,192.168.1.106,141.84.69.88,54.216.74.160,0,100,48030,21289985,-,-,-,-,-,97,111,2,-10,1
2017-01-13 18:40:27,samsung,SM-G920F,6.0.1,84884dd4-59f6-4656-9949-249df8f4bc67,HqZ8qNQO0Uyb4JGeFXR2nBHls/mHNaLBhpFfn4nH/wE=,1.1427994206991E+020,268,1,Vodafone,262,2,Vodafone,,,,-,-,-,-,,0,100,48030,20929793,-,-,-,-,-,97,99,2,-8,13
2017-01-13 17:20:29,samsung,SM-G920F,6.0.1,84884dd4-59f6-4656-9949-249df8f4bc67,HqZ8qNQO0Uyb4JGeFXR2nBHls/mHNaLBhpFfn4nH/wE=,1.1427994206991E+020,268,1,Vodafone,262,2,Vodafone,52.7,7289.775,16785.3266331658,-,-,131.159.199.38,131.159.199.38,54.216.74.160,0,100,8306,246168299,-,-,-,31,-51,-,-,-,-,-
2017-01-12 23:47:09,samsung,SM-G920F,6.0.1,84884dd4-59f6-4656-9949-249df8f4bc67,HqZ8qNQO0Uyb4JGeFXR2nBHls/mHNaLBhpFfn4nH/wE=,1.1427994206991E+020,268,1,Vodafone,262,2,Vodafone,33.9,14443.8,77427.4701633166,-,-,192.168.1.106,141.84.69.88,54.78.38.85,0,100,48030,21289985,-,-,-,-,-,97,114,2,-9,4
2017-01-12 23:17:10,samsung,SM-G920F,6.0.1,84884dd4-59f6-4656-9949-249df8f4bc67,HqZ8qNQO0Uyb4JGeFXR2nBHls/mHNaLBhpFfn4nH/wE=,1.1427994206991E+020,268,1,Vodafone,262,2,Vodafone,40.7,5954.9,47604.4676507538,-,-,192.168.1.106,141.84.69.88,54.78.38.85,0,100,48030,21250817,-,-,-,-,-,97,115,2,-11,-1
2017-01-12 22:47:10,samsung,SM-G920F,6.0.1,84884dd4-59f6-4656-9949-249df8f4bc67,HqZ8qNQO0Uyb4JGeFXR2nBHls/mHNaLBhpFfn4nH/wE=,1.1427994206991E+020,268,1,Vodafone,262,2,Vodafone,36.7,11889.4375,40984.3278894472,-,-,192.168.1.106,141.84.69.88,54.216.74.160,0,100,48030,21250817,-,-,-,-,-,97,114,2,-12,-1
2017-01-12 22:17:10,samsung,SM-G920F,6.0.1,84884dd4-59f6-4656-9949-249df8f4bc67,HqZ8qNQO0Uyb4JGeFXR2nBHls/mHNaLBhpFfn4nH/wE=,1.1427994206991E+020,268,1,Vodafone,262,2,Vodafone,43.6666666667,2452.55,78725.9877512563,-,-,192.168.1.106,141.84.69.88,54.216.74.160,0,100,48030,21250817,-,-,-,-,-,97,114,2,-9,2
2017-01-12 21:27:09,samsung,SM-G920F,6.0.1,84884dd4-59f6-4656-9949-249df8f4bc67,HqZ8qNQO0Uyb4JGeFXR2nBHls/mHNaLBhpFfn4nH/wE=,1.1427994206991E+020,268,1,Vodafone,262,2,Vodafone,37.2,3769.325,48238.6447864322,-,-,192.168.1.106,141.84.69.88,54.216.74.160,0,100,48030,21250817,-,-,-,-,-,97,115,2,-9,0
2017-01-12 20:57:09,samsung,SM-G920F,6.0.1,84884dd4-59f6-4656-9949-249df8f4bc67,HqZ8qNQO0Uyb4JGeFXR2nBHls/mHNaLBhpFfn4nH/wE=,1.1427994206991E+020,268,1,Vodafone,262,2,Vodafone,37.4,3728.6,48314.1677135678,-,-,192.168.1.106,141.84.69.88,54.216.74.160,0,100,48030,21250817,-,-,-,-,-,97,117,2,-12,1
2017-01-12 20:27:09,samsung,SM-G920F,6.0.1,84884dd4-59f6-4656-9949-249df8f4bc67,HqZ8qNQO0Uyb4JGeFXR2nBHls/mHNaLBhpFfn4nH/wE=,1.1427994206991E+020,268,1,Vodafone,262,2,Vodafone,38.1,5495.6125,38331.1086683417,-,-,192.168.1.106,141.84.69.88,54.78.38.85,0,100,48030,21289985,-,-,-,-,-,97,108,2,-8,3
2017-01-12 19:57:09,samsung,SM-G920F,6.0.1,84884dd4-59f6-4656-9949-249df8f4bc67,HqZ8qNQO0Uyb4JGeFXR2nBHls/mHNaLBhpFfn4nH/wE=,1.1427994206991E+020,268,1,Vodafone,262,2,Vodafone,,,,-,-,-,-,54.216.74.160,0,100,48030,21289985,-,-,-,-,-,97,113,2,-10,1
2017-01-12 19:27:09,samsung,SM-G920F,6.0.1,84884dd4-59f6-4656-9949-249df8f4bc67,HqZ8qNQO0Uyb4JGeFXR2nBHls/mHNaLBhpFfn4nH/wE=,1.1427994206991E+020,268,1,Vodafone,262,2,Vodafone,37.2,5095.15,,-,-,192.168.1.106,141.84.69.88,54.216.74.160,0,100,48030,21289985,-,-,-,-,-,97,114,2,-11,1
2017-01-12 18:57:09,samsung,SM-G920F,6.0.1,84884dd4-59f6-4656-9949-249df8f4bc67,HqZ8qNQO0Uyb4JGeFXR2nBHls/mHNaLBhpFfn4nH/wE=,1.1427994206991E+020,268,1,Vodafone,262,2,Vodafone,37.5,1373.3375,,-,-,192.168.1.106,141.84.69.88,54.216.74.160,0,100,48030,21289985,-,-,-,-,-,97,113,2,-9,2
2017-01-12 18:27:09,samsung,SM-G920F,6.0.1,84884dd4-59f6-4656-9949-249df8f4bc67,HqZ8qNQO0Uyb4JGeFXR2nBHls/mHNaLBhpFfn4nH/wE=,1.1427994206991E+020,268,1,Vodafone,262,2,Vodafone,37.2,5145.0875,44575.8935301508,-,-,192.168.1.106,141.84.69.88,54.216.74.160,0,100,48030,21289985,-,-,-,-,-,97,110,2,-10,2
2017-01-12 17:57:09,samsung,SM-G920F,6.0.1,84884dd4-59f6-4656-9949-249df8f4bc67,HqZ8qNQO0Uyb4JGeFXR2nBHls/mHNaLBhpFfn4nH/wE=,1.1427994206991E+020,268,1,Vodafone,262,2,Vodafone,36.5,4597.4,71158.1548366834,-,-,192.168.1.106,141.84.69.88,54.216.74.160,0,100,48030,21289985,-,-,-,-,-,97,114,2,-12,1
2017-01-12 17:17:09,samsung,SM-G920F,6.0.1,84884dd4-59f6-4656-9949-249df8f4bc67,HqZ8qNQO0Uyb4JGeFXR2nBHls/mHNaLBhpFfn4nH/wE=,1.1427994206991E+020,268,1,Vodafone,262,2,Vodafone,71.8,12745.425,36039.3624371859,-,-,192.168.1.106,141.84.69.88,54.216.74.160,0,100,48030,21289985,-,-,-,-,-,97,111,2,-10,2
2017-01-12 16:47:09,samsung,SM-G920F,6.0.1,84884dd4-59f6-4656-9949-249df8f4bc67,HqZ8qNQO0Uyb4JGeFXR2nBHls/mHNaLBhpFfn4nH/wE=,1.1427994206991E+020,268,1,Vodafone,262,2,Vodafone,38.4,7857.6625,45322.9852386935,-,-,192.168.1.106,141.84.69.88,54.216.74.160,0,100,48030,21250817,-,-,-,-,-,97,113,2,-11,-1
2017-01-12 16:17:09,samsung,SM-G920F,6.0.1,84884dd4-59f6-4656-9949-249df8f4bc67,HqZ8qNQO0Uyb4JGeFXR2nBHls/mHNaLBhpFfn4nH/wE=,1.1427994206991E+020,268,1,Vodafone,262,2,Vodafone,35.7,13658.7125,48933.5788316583,-,-,192.168.1.106,141.84.69.88,54.216.74.160,0,100,48030,20747010,-,-,-,-,-,97,113,2,-14,-8
2017-01-12 15:47:09,samsung,SM-G920F,6.0.1,84884dd4-59f6-4656-9949-249df8f4bc67,HqZ8qNQO0Uyb4JGeFXR2nBHls/mHNaLBhpFfn4nH/wE=,1.1427994206991E+020,268,1,Vodafone,262,2,Vodafone,35.6,20038.9625,54871.7792085427,-,-,192.168.1.106,141.84.69.88,54.216.74.160,0,100,48030,20747010,-,-,-,-,-,97,114,2,-12,-1
2017-01-12 15:17:09,samsung,SM-G920F,6.0.1,84884dd4-59f6-4656-9949-249df8f4bc67,HqZ8qNQO0Uyb4JGeFXR2nBHls/mHNaLBhpFfn4nH/wE=,1.1427994206991E+020,268,1,Vodafone,262,2,Vodafone,34.4,13613.4625,57723.3322864322,-,-,192.168.1.106,141.84.69.88,54.78.38.85,0,100,48030,20747010,-,-,-,-,-,97,112,2,-13,-2
2017-01-01 00:02:20,samsung,SM-G920F,6.0.1,84884dd4-59f6-4656-9949-249df8f4bc67,HqZ8qNQO0Uyb4JGeFXR2nBHls/mHNaLBhpFfn4nH/wE=,1.1427994206991E+020,268,1,Vodafone,268,1,Vodafone,,,,-,-,-,-,,0,100,5,265733,-,-,-,-,-,97,117,2,-7,9
2016-12-31 23:02:18,samsung,SM-G920F,6.0.1,84884dd4-59f6-4656-9949-249df8f4bc67,HqZ8qNQO0Uyb4JGeFXR2nBHls/mHNaLBhpFfn4nH/wE=,1.1427994206991E+020,268,1,Vodafone,268,1,Vodafone,,,,-,-,-,-,,0,100,5,265733,-,-,-,-,-,97,112,2,-7,10
2016-12-31 22:32:19,samsung,SM-G920F,6.0.1,84884dd4-59f6-4656-9949-249df8f4bc67,HqZ8qNQO0Uyb4JGeFXR2nBHls/mHNaLBhpFfn4nH/wE=,1.1427994206991E+020,268,1,Vodafone,268,1,Vodafone,,,,-,-,-,-,,0,100,5,265733,-,-,-,-,-,97,111,2,-8,4
2016-12-31 22:02:19,samsung,SM-G920F,6.0.1,84884dd4-59f6-4656-9949-249df8f4bc67,HqZ8qNQO0Uyb4JGeFXR2nBHls/mHNaLBhpFfn4nH/wE=,1.1427994206991E+020,268,1,Vodafone,268,1,Vodafone,,,,-,-,-,-,,0,100,5,265733,-,-,-,-,-,97,108,6,-10,0
2016-12-31 21:02:17,samsung,SM-G920F,6.0.1,84884dd4-59f6-4656-9949-249df8f4bc67,HqZ8qNQO0Uyb4JGeFXR2nBHls/mHNaLBhpFfn4nH/wE=,1.1427994206991E+020,268,1,Vodafone,268,1,Vodafone,,,,-,-,-,-,,0,100,5,265733,-,-,-,-,-,97,113,2,-8,9
2016-12-31 20:32:18,samsung,SM-G920F,6.0.1,84884dd4-59f6-4656-9949-249df8f4bc67,HqZ8qNQO0Uyb4JGeFXR2nBHls/mHNaLBhpFfn4nH/wE=,1.1427994206991E+020,268,1,Vodafone,268,1,Vodafone,,,,-,-,-,-,,0,100,5,265733,-,-,-,-,-,97,113,2,-7,7
2016-12-31 20:02:18,samsung,SM-G920F,6.0.1,84884dd4-59f6-4656-9949-249df8f4bc67,HqZ8qNQO0Uyb4JGeFXR2nBHls/mHNaLBhpFfn4nH/wE=,1.1427994206991E+020,268,1,Vodafone,268,1,Vodafone,,,,-,-,-,-,,0,100,5,265733,-,-,-,-,-,97,110,2,-5,14
2016-12-31 19:32:17,samsung,SM-G920F,6.0.1,84884dd4-59f6-4656-9949-249df8f4bc67,HqZ8qNQO0Uyb4JGeFXR2nBHls/mHNaLBhpFfn4nH/wE=,1.1427994206991E+020,268,1,Vodafone,268,1,Vodafone,,,,-,-,-,-,,0,100,5,265733,-,-,-,-,-,97,112,2,-8,8
2016-12-31 19:02:18,samsung,SM-G920F,6.0.1,84884dd4-59f6-4656-9949-249df8f4bc67,HqZ8qNQO0Uyb4JGeFXR2nBHls/mHNaLBhpFfn4nH/wE=,1.1427994206991E+020,268,1,Vodafone,268,1,Vodafone,,,,-,-,-,-,,0,100,5,265733,-,-,-,-,-,97,103,2,-10,11
2016-12-31 18:22:18,samsung,SM-G920F,6.0.1,84884dd4-59f6-4656-9949-249df8f4bc67,HqZ8qNQO0Uyb4JGeFXR2nBHls/mHNaLBhpFfn4nH/wE=,1.1427994206991E+020,268,1,Vodafone,268,1,Vodafone,,,,-,-,-,-,,0,100,5,265733,-,-,-,-,-,97,101,2,-6,18
2016-12-31 17:52:18,samsung,SM-G920F,6.0.1,84884dd4-59f6-4656-9949-249df8f4bc67,HqZ8qNQO0Uyb4JGeFXR2nBHls/mHNaLBhpFfn4nH/wE=,1.1427994206991E+020,268,1,Vodafone,268,1,Vodafone,,,,-,-,-,-,,0,100,5,265733,-,-,-,-,-,97,106,2,-6,13
2016-12-31 17:18:19,samsung,SM-G920F,6.0.1,84884dd4-59f6-4656-9949-249df8f4bc67,HqZ8qNQO0Uyb4JGeFXR2nBHls/mHNaLBhpFfn4nH/wE=,1.1427994206991E+020,268,1,Vodafone,268,1,Vodafone,,,,-,-,-,-,,0,100,5,261892,-,-,-,-,-,97,114,2,-7,7
2017-01-08 19:38:40,Apple,iPhone7.2,-,05640496F6714C57A9C4A9C76C9218ED,-,1.1427994206991E+020,262,2,Vodafone,262,2,Vodafone,86,5676,624,49.2046407005,11.2366187945,100.92.99.205,109.43.0.241,54.216.74.160,8,-,null,null,-,-,-,-,-,-,-,-,-,-
2017-01-07 11:49:16,Apple,iPhone7.2,-,05640496F6714C57A9C4A9C76C9218ED,-,1.1427994206991E+020,262,2,Vodafone,262,2,Vodafone,110,6846,668,51.8063936709,10.4567169026,192.168.0.100,79.193.23.47,54.216.74.160,0,-,null,null,-,-,-,-,-,-,-,-,-,-
2017-01-07 10:45:32,Apple,iPhone7.2,-,05640496F6714C57A9C4A9C76C9218ED,-,1.1427994206991E+020,262,2,Vodafone,262,2,Vodafone,176,10284,839,51.8065457605,10.4566584807,192.168.0.100,79.193.23.47,54.216.74.160,0,-,null,null,-,-,-,-,-,-,-,-,-,-
2017-01-07 09:30:31,Apple,iPhone7.2,-,05640496F6714C57A9C4A9C76C9218ED,-,1.1427994206991E+020,262,2,Vodafone,262,2,Vodafone,107,6954,839,51.8065265241,10.4569805134,192.168.0.100,79.193.23.47,54.216.74.160,0,-,null,null,-,-,-,-,-,-,-,-,-,-
2017-01-07 08:17:50,Apple,iPhone7.2,-,05640496F6714C57A9C4A9C76C9218ED,-,1.1427994206991E+020,262,2,Vodafone,262,2,Vodafone,61,10287,837,51.8065471435,10.4567977041,192.168.0.100,79.193.23.47,54.78.38.85,0,-,null,null,-,-,-,-,-,-,-,-,-,-
2017-01-07 07:17:45,Apple,iPhone7.2,-,05640496F6714C57A9C4A9C76C9218ED,-,1.1427994206991E+020,262,2,Vodafone,262,2,Vodafone,51,10298,839,51.8065868738,10.4566892423,192.168.0.100,79.193.23.47,54.216.74.160,0,-,null,null,-,-,-,-,-,-,-,-,-,-
2017-01-07 06:03:05,Apple,iPhone7.2,-,05640496F6714C57A9C4A9C76C9218ED,-,1.1427994206991E+020,262,2,Vodafone,262,2,Vodafone,49,10282,839,51.8068995188,10.4563499428,192.168.0.100,79.193.23.47,54.216.74.160,0,-,null,null,-,-,-,-,-,-,-,-,-,-
2017-01-07 05:03:05,Apple,iPhone7.2,-,05640496F6714C57A9C4A9C76C9218ED,-,1.1427994206991E+020,262,2,Vodafone,262,2,Vodafone,63,10282,762,51.8066014583,10.4565894138,192.168.0.100,79.193.23.47,54.216.74.160,0,-,null,null,-,-,-,-,-,-,-,-,-,-
2017-01-07 03:47:49,Apple,iPhone7.2,-,05640496F6714C57A9C4A9C76C9218ED,-,1.1427994206991E+020,262,2,Vodafone,262,2,Vodafone,48,10284,821,51.8067045557,10.4564599134,192.168.0.100,79.193.23.47,54.216.74.160,0,-,null,null,-,-,-,-,-,-,-,-,-,-
2017-01-07 02:32:54,Apple,iPhone7.2,-,05640496F6714C57A9C4A9C76C9218ED,-,1.1427994206991E+020,262,2,Vodafone,262,2,Vodafone,48,10201,839,51.8068235368,10.4567547049,192.168.0.100,79.193.23.47,54.216.74.160,0,-,null,null,-,-,-,-,-,-,-,-,-,-
2017-01-07 01:22:52,Apple,iPhone7.2,-,05640496F6714C57A9C4A9C76C9218ED,-,1.1427994206991E+020,262,2,Vodafone,262,2,Vodafone,56,10284,839,51.8065281585,10.4567957763,192.168.0.100,79.193.23.47,54.216.74.160,0,-,null,null,-,-,-,-,-,-,-,-,-,-
2017-01-07 00:17:52,Apple,iPhone7.2,-,05640496F6714C57A9C4A9C76C9218ED,-,1.1427994206991E+020,262,2,Vodafone,262,2,Vodafone,48,10282,839,51.8065294996,10.4564632662,192.168.0.100,79.193.23.47,54.216.74.160,0,-,null,null,-,-,-,-,-,-,-,-,-,-
2017-01-06 12:18:06,Apple,iPhone7.2,-,05640496F6714C57A9C4A9C76C9218ED,-,1.1427994206991E+020,262,2,Vodafone,262,2,Vodafone,322,141,0,51.7748055468,10.4390322603,100.96.147.8,109.45.0.96,54.216.74.160,2,-,null,null,-,-,-,-,-,-,-,-,-,-
2017-01-06 11:45:28,Apple,iPhone7.2,-,05640496F6714C57A9C4A9C76C9218ED,-,1.1427994206991E+020,262,2,Vodafone,262,2,Vodafone,,0,0,51.7558347853,10.5178902112,,,,0,-,null,null,-,-,-,-,-,-,-,-,-,-
2017-01-06 10:45:14,Apple,iPhone7.2,-,05640496F6714C57A9C4A9C76C9218ED,-,1.1427994206991E+020,262,2,Vodafone,262,2,Vodafone,,0,0,51.7558942549,10.51782961,,,,0,-,null,null,-,-,-,-,-,-,-,-,-,-
2017-01-06 09:45:08,Apple,iPhone7.2,-,05640496F6714C57A9C4A9C76C9218ED,-,1.1427994206991E+020,262,2,Vodafone,262,2,Vodafone,,0,0,51.7571074097,10.5185163394,,,,0,-,null,null,-,-,-,-,-,-,-,-,-,-
2017-01-06 08:30:10,Apple,iPhone7.2,-,05640496F6714C57A9C4A9C76C9218ED,-,1.1427994206991E+020,262,2,Vodafone,262,2,Vodafone,,0,0,51.7602418643,10.5140366312,,,,0,-,null,null,-,-,-,-,-,-,-,-,-,-
2017-01-06 07:17:50,Apple,iPhone7.2,-,05640496F6714C57A9C4A9C76C9218ED,-,1.1427994206991E+020,262,2,Vodafone,262,2,Vodafone,125,7402,819,51.8060925091,10.4558056221,192.168.0.103,79.193.14.225,54.78.38.85,0,-,null,null,-,-,-,-,-,-,-,-,-,-
2017-01-06 06:17:48,Apple,iPhone7.2,-,05640496F6714C57A9C4A9C76C9218ED,-,1.1427994206991E+020,262,2,Vodafone,262,2,Vodafone,47,10284,753,51.8067120156,10.4564280622,192.168.0.103,79.193.14.225,54.216.74.160,0,-,null,null,-,-,-,-,-,-,-,-,-,-
2017-01-06 05:07:57,Apple,iPhone7.2,-,05640496F6714C57A9C4A9C76C9218ED,-,1.1427994206991E+020,262,2,Vodafone,262,2,Vodafone,102,10242,780,51.8066621433,10.4568324052,192.168.0.103,79.193.14.225,54.216.74.160,0,-,null,null,-,-,-,-,-,-,-,-,-,-
2017-01-06 03:47:48,Apple,iPhone7.2,-,05640496F6714C57A9C4A9C76C9218ED,-,1.1427994206991E+020,262,2,Vodafone,262,2,Vodafone,143,10284,832,51.8066368299,10.4567175731,192.168.0.103,79.193.14.225,54.216.74.160,0,-,null,null,-,-,-,-,-,-,-,-,-,-
2017-01-06 02:33:18,Apple,iPhone7.2,-,05640496F6714C57A9C4A9C76C9218ED,-,1.1427994206991E+020,262,2,Vodafone,262,2,Vodafone,47,8486,810,51.8066591677,10.4568604846,192.168.0.103,79.193.14.225,54.216.74.160,0,-,null,null,-,-,-,-,-,-,-,-,-,-
2017-01-06 01:32:59,Apple,iPhone7.2,-,05640496F6714C57A9C4A9C76C9218ED,-,1.1427994206991E+020,262,2,Vodafone,262,2,Vodafone,79,10284,839,51.8066497799,10.4566573911,192.168.0.103,79.193.14.225,54.78.38.85,0,-,null,null,-,-,-,-,-,-,-,-,-,-
2017-01-06 00:17:56,Apple,iPhone7.2,-,05640496F6714C57A9C4A9C76C9218ED,-,1.1427994206991E+020,262,2,Vodafone,262,2,Vodafone,67,10284,571,51.8065680145,10.4565353505,192.168.0.103,79.193.14.225,54.216.74.160,0,-,null,null,-,-,-,-,-,-,-,-,-,-
2017-01-05 23:07:45,Apple,iPhone7.2,-,05640496F6714C57A9C4A9C76C9218ED,-,1.1427994206991E+020,262,2,Vodafone,262,2,Vodafone,70,10284,839,51.8066878757,10.4563836381,192.168.0.103,79.193.43.242,54.216.74.160,0,-,null,null,-,-,-,-,-,-,-,-,-,-
2017-01-05 22:03:11,Apple,iPhone7.2,-,05640496F6714C57A9C4A9C76C9218ED,-,1.1427994206991E+020,262,2,Vodafone,262,2,Vodafone,47,7262,693,51.8067278155,10.4568422958,192.168.0.103,79.193.43.242,54.216.74.160,0,-,null,null,-,-,-,-,-,-,-,-,-,-
2017-01-05 20:32:31,Apple,iPhone7.2,-,05640496F6714C57A9C4A9C76C9218ED,-,1.1427994206991E+020,262,2,Vodafone,262,2,Vodafone,47,6165,747,51.8066901807,10.4567828681,192.168.0.103,79.193.43.242,54.216.74.160,0,-,null,null,-,-,-,-,-,-,-,-,-,-
2017-01-02 17:33:15,Apple,iPhone7.2,-,05640496F6714C57A9C4A9C76C9218ED,-,1.1427994206991E+020,262,2,Vodafone,262,2,Vodafone,47,10287,812,51.8065080343,10.456621618,192.168.0.100,79.193.51.108,54.216.74.160,0,-,null,null,-,-,-,-,-,-,-,-,-,-
2017-01-02 16:24:50,Apple,iPhone7.2,-,05640496F6714C57A9C4A9C76C9218ED,-,1.1427994206991E+020,262,2,Vodafone,262,2,Vodafone,169,10772,834,51.8071329967,10.4566794355,192.168.0.100,79.193.51.108,54.216.74.160,0,-,null,null,-,-,-,-,-,-,-,-,-,-
2017-01-02 14:00:02,Apple,iPhone7.2,-,05640496F6714C57A9C4A9C76C9218ED,-,1.1427994206991E+020,262,2,Vodafone,262,2,Vodafone,,0,0,51.7904020893,10.3925530985,,,,0,-,null,null,-,-,-,-,-,-,-,-,-,-
2017-01-02 12:56:20,Apple,iPhone7.2,-,05640496F6714C57A9C4A9C76C9218ED,-,1.1427994206991E+020,262,2,Vodafone,262,2,Vodafone,35,20986,30633,51.8011611421,10.3410209902,139.174.28.92,139.174.28.92,54.216.74.160,0,-,null,null,-,-,-,-,-,-,-,-,-,-
2017-01-02 11:06:00,Apple,iPhone7.2,-,05640496F6714C57A9C4A9C76C9218ED,-,1.1427994206991E+020,262,2,Vodafone,262,2,Vodafone,84,19695,3278,51.8033455918,10.332366759,100.106.193.155,109.45.1.43,54.216.74.160,8,-,null,null,-,-,-,-,-,-,-,-,-,-
2017-01-02 07:40:30,Sony,D5803,6.0.1,545c7945-6f55-4043-9ec7-14d60893e659,O9a6rkzrnqMp2GzHZATXU0mnzQSe/ld6dfkvtmASCBo=,1.1427994206991E+020,262,1,T-Mobile,262,1,T-Mobile,60.2,6934.5625,1356.9629396985,48.1751411,11.5972469,10.50.49.231,80.187.123.112,54.216.74.160,15,38,17355,3489991,-,-,-,12,-89,-,-,-,-,-
2017-01-02 06:12:02,Sony,D5803,6.0.1,545c7945-6f55-4043-9ec7-14d60893e659,O9a6rkzrnqMp2GzHZATXU0mnzQSe/ld6dfkvtmASCBo=,1.1427994206991E+020,262,1,T-Mobile,262,1,T-Mobile,55.1,6918.725,1354.6623743719,48.1751738,11.5973119,10.50.49.231,80.187.123.112,54.216.74.160,15,6,17355,3489993,-,-,-,2,-109,-,-,-,-,-
2017-01-02 02:14:43,Sony,D5803,6.0.1,545c7945-6f55-4043-9ec7-14d60893e659,O9a6rkzrnqMp2GzHZATXU0mnzQSe/ld6dfkvtmASCBo=,1.1427994206991E+020,262,1,T-Mobile,262,1,T-Mobile,57.2,6887.05,1357.1608040201,48.17239619,11.5847531,10.50.49.231,80.187.123.112,54.216.74.160,15,6,17355,3489991,-,-,-,2,-109,-,-,-,-,-
2017-01-02 00:16:04,Sony,D5803,6.0.1,545c7945-6f55-4043-9ec7-14d60893e659,O9a6rkzrnqMp2GzHZATXU0mnzQSe/ld6dfkvtmASCBo=,1.1427994206991E+020,262,1,T-Mobile,262,1,T-Mobile,74.5,6611.025,1356.9189698493,48.1751411,11.5972469,10.50.49.231,80.187.123.112,54.216.74.160,15,6,17355,3489993,-,-,-,2,-109,-,-,-,-,-
2017-01-01 23:06:56,Sony,D5803,6.0.1,545c7945-6f55-4043-9ec7-14d60893e659,O9a6rkzrnqMp2GzHZATXU0mnzQSe/ld6dfkvtmASCBo=,1.1427994206991E+020,262,1,T-Mobile,262,1,T-Mobile,56.7,6936.825,1356.9707914573,48.1751411,11.5972469,10.50.49.231,80.187.123.112,54.216.74.160,15,12,17355,3475593,-,-,-,4,-105,-,-,-,-,-
2017-01-01 21:50:43,Sony,D5803,6.0.1,545c7945-6f55-4043-9ec7-14d60893e659,O9a6rkzrnqMp2GzHZATXU0mnzQSe/ld6dfkvtmASCBo=,1.1427994206991E+020,262,1,T-Mobile,262,1,T-Mobile,110.4,1028.25,1001.7587939699,48.1751411,11.5972469,192.168.10.17,79.227.227.252,54.216.74.160,0,6,17355,3489993,-,-,-,2,-109,-,-,-,-,-
2017-01-01 20:49:26,Sony,D5803,6.0.1,545c7945-6f55-4043-9ec7-14d60893e659,O9a6rkzrnqMp2GzHZATXU0mnzQSe/ld6dfkvtmASCBo=,1.1427994206991E+020,262,1,T-Mobile,262,1,T-Mobile,206.5,5445.8375,816.4808417085,-,-,10.75.243.178,80.187.122.139,54.216.74.160,15,22,17355,3489991,-,-,-,7,-99,-,-,-,-,-
2017-01-01 19:03:17,Sony,D5803,6.0.1,545c7945-6f55-4043-9ec7-14d60893e659,O9a6rkzrnqMp2GzHZATXU0mnzQSe/ld6dfkvtmASCBo=,1.1427994206991E+020,262,1,T-Mobile,232,3,T-Mobile AT,,,,-,-,-,-,,0,0,2511,9918670,-,-,-,0,-113,-,-,-,-,-
2017-01-01 18:02:26,Sony,D5803,6.0.1,545c7945-6f55-4043-9ec7-14d60893e659,O9a6rkzrnqMp2GzHZATXU0mnzQSe/ld6dfkvtmASCBo=,1.1427994206991E+020,262,1,T-Mobile,222,1,TIM,,,,-,-,-,-,,0,19,61320,86509658,-,-,-,6,-101,-,-,-,-,-
2017-01-01 17:03:18,Sony,D5803,6.0.1,545c7945-6f55-4043-9ec7-14d60893e659,O9a6rkzrnqMp2GzHZATXU0mnzQSe/ld6dfkvtmASCBo=,1.1427994206991E+020,262,1,T-Mobile,222,1,TIM,,,,46.64280854,11.5780287,-,-,,0,0,61320,86513091,-,-,-,0,-113,-,-,-,-,-
2017-01-01 15:50:51,Sony,D5803,6.0.1,545c7945-6f55-4043-9ec7-14d60893e659,O9a6rkzrnqMp2GzHZATXU0mnzQSe/ld6dfkvtmASCBo=,1.1427994206991E+020,262,1,T-Mobile,222,1,TIM,,0,0,46.3450076,11.24219575,192.168.1.5,188.218.120.94,54.216.74.160,0,0,61320,86513080,-,-,-,0,-113,-,-,-,-,-
2017-01-01 14:35:45,Sony,D5803,6.0.1,545c7945-6f55-4043-9ec7-14d60893e659,O9a6rkzrnqMp2GzHZATXU0mnzQSe/ld6dfkvtmASCBo=,1.1427994206991E+020,262,1,T-Mobile,222,1,TIM,92.2,162,459.0452261307,46.3451039,11.2422677,192.168.1.5,188.218.120.94,54.216.74.160,0,38,35029,3724,12,0,-89,-,-,-,-,-,-,-
2017-01-01 13:36:38,Sony,D5803,6.0.1,545c7945-6f55-4043-9ec7-14d60893e659,O9a6rkzrnqMp2GzHZATXU0mnzQSe/ld6dfkvtmASCBo=,1.1427994206991E+020,262,1,T-Mobile,222,1,TIM,134.9,198,465.8291457286,46.3451023,11.2422684,192.168.1.5,188.218.120.94,54.78.38.85,0,0,61320,86518972,-,-,-,0,-113,-,-,-,-,-
2017-01-01 12:21:44,Sony,D5803,6.0.1,545c7945-6f55-4043-9ec7-14d60893e659,O9a6rkzrnqMp2GzHZATXU0mnzQSe/ld6dfkvtmASCBo=,1.1427994206991E+020,262,1,T-Mobile,222,1,TIM,95.7,157.5,474.8743718593,46.3451594,11.2421872,192.168.1.5,188.218.120.94,54.216.74.160,0,0,61320,86518972,-,-,-,0,-113,-,-,-,-,-
2017-01-01 11:12:52,Sony,D5803,6.0.1,545c7945-6f55-4043-9ec7-14d60893e659,O9a6rkzrnqMp2GzHZATXU0mnzQSe/ld6dfkvtmASCBo=,1.1427994206991E+020,262,1,T-Mobile,222,1,TIM,95.6,153,495.2261306533,46.3451032,11.2422685,192.168.1.5,188.218.120.94,54.216.74.160,0,0,61320,86514833,-,-,-,0,-113,-,-,-,-,-
2017-01-01 10:13:22,Sony,D5803,6.0.1,545c7945-6f55-4043-9ec7-14d60893e659,O9a6rkzrnqMp2GzHZATXU0mnzQSe/ld6dfkvtmASCBo=,1.1427994206991E+020,262,1,T-Mobile,222,1,TIM,98.8,128.25,495.2261306533,46.345103,11.2422682,192.168.1.5,188.218.120.94,54.216.74.160,0,0,61320,86518972,-,-,-,0,-113,-,-,-,-,-
2017-01-01 09:13:22,Sony,D5803,6.0.1,545c7945-6f55-4043-9ec7-14d60893e659,O9a6rkzrnqMp2GzHZATXU0mnzQSe/ld6dfkvtmASCBo=,1.1427994206991E+020,262,1,T-Mobile,222,1,TIM,99.3,166.5,490.7035175879,46.3451027,11.242268,192.168.1.5,188.218.120.94,54.78.38.85,0,0,61320,86518972,-,-,-,0,-113,-,-,-,-,-
2016-12-31 22:13:22,Sony,D5803,6.0.1,545c7945-6f55-4043-9ec7-14d60893e659,O9a6rkzrnqMp2GzHZATXU0mnzQSe/ld6dfkvtmASCBo=,1.1427994206991E+020,262,1,T-Mobile,222,1,TIM,,,,46.3110166,11.2187187,-,-,,0,0,61320,86509470,-,-,-,0,-113,-,-,-,-,-
2016-12-31 21:13:10,Sony,D5803,6.0.1,545c7945-6f55-4043-9ec7-14d60893e659,O9a6rkzrnqMp2GzHZATXU0mnzQSe/ld6dfkvtmASCBo=,1.1427994206991E+020,262,1,T-Mobile,222,1,TIM,,,,46.3110258,11.2186253,-,-,,0,0,61320,86509470,-,-,-,0,-113,-,-,-,-,-
2016-12-31 20:13:56,Sony,D5803,6.0.1,545c7945-6f55-4043-9ec7-14d60893e659,O9a6rkzrnqMp2GzHZATXU0mnzQSe/ld6dfkvtmASCBo=,1.1427994206991E+020,262,1,T-Mobile,222,1,TIM,,,,46.3110258,11.2186253,-,-,,0,0,61320,86518760,-,-,-,0,-113,-,-,-,-,-
2017-01-01 08:13:22,Sony,D5803,6.0.1,545c7945-6f55-4043-9ec7-14d60893e659,O9a6rkzrnqMp2GzHZATXU0mnzQSe/ld6dfkvtmASCBo=,1.1427994206991E+020,262,1,T-Mobile,222,1,TIM,,0,0,46.3465887,11.2679906,-,-,54.78.38.85,0,0,61320,86518972,-,-,-,0,-113,-,-,-,-,-
2017-01-01 07:13:22,Sony,D5803,6.0.1,545c7945-6f55-4043-9ec7-14d60893e659,-,1.1427994206991E+020,-,-,-,-,-,-,,,,-,-,-,-,,0,0,-,-,-,-,-,-,-,-,-,-,-,-
2017-01-01 06:14:15,Sony,D5803,6.0.1,545c7945-6f55-4043-9ec7-14d60893e659,-,1.1427994206991E+020,-,-,-,-,-,-,,,,-,-,-,-,,0,0,-,-,-,-,-,-,-,-,-,-,-,-
2017-01-01 05:14:14,Sony,D5803,6.0.1,545c7945-6f55-4043-9ec7-14d60893e659,-,1.1427994206991E+020,-,-,-,-,-,-,,,,-,-,-,-,,0,0,-,-,-,-,-,-,-,-,-,-,-,-
2017-01-01 04:16:46,Sony,D5803,6.0.1,545c7945-6f55-4043-9ec7-14d60893e659,-,1.1427994206991E+020,-,-,-,-,-,-,,,,-,-,-,-,,0,0,-,-,-,-,-,-,-,-,-,-,-,-
2017-01-01 03:16:46,Sony,D5803,6.0.1,545c7945-6f55-4043-9ec7-14d60893e659,-,1.1427994206991E+020,-,-,-,-,-,-,,,,-,-,-,-,,0,0,-,-,-,-,-,-,-,-,-,-,-,-
2017-01-01 02:16:46,Sony,D5803,6.0.1,545c7945-6f55-4043-9ec7-14d60893e659,-,1.1427994206991E+020,-,-,-,-,-,-,,,,-,-,-,-,,0,0,-,-,-,-,-,-,-,-,-,-,-,-
2017-01-01 01:13:22,Sony,D5803,6.0.1,545c7945-6f55-4043-9ec7-14d60893e659,-,1.1427994206991E+020,-,-,-,-,-,-,,,,-,-,-,-,,0,0,-,-,-,-,-,-,-,-,-,-,-,-
2017-01-01 00:12:34,Sony,D5803,6.0.1,545c7945-6f55-4043-9ec7-14d60893e659,O9a6rkzrnqMp2GzHZATXU0mnzQSe/ld6dfkvtmASCBo=,1.1427994206991E+020,262,1,T-Mobile,222,1,TIM,,,,46.3198757,11.2620024,-,-,,0,22,61320,86513088,-,-,-,7,-99,-,-,-,-,-
2016-12-31 23:12:43,Sony,D5803,6.0.1,545c7945-6f55-4043-9ec7-14d60893e659,O9a6rkzrnqMp2GzHZATXU0mnzQSe/ld6dfkvtmASCBo=,1.1427994206991E+020,262,1,T-Mobile,222,1,TIM,,,,46.3109529,11.2185964,-,-,,0,0,61320,86513088,-,-,-,0,-113,-,-,-,-,-
2016-12-31 20:13:56,Sony,D5803,6.0.1,545c7945-6f55-4043-9ec7-14d60893e659,O9a6rkzrnqMp2GzHZATXU0mnzQSe/ld6dfkvtmASCBo=,1.1427994206991E+020,262,1,T-Mobile,222,1,TIM,,,,46.3110258,11.2186253,-,-,,0,0,61320,86518760,-,-,-,0,-113,-,-,-,-,-
2016-12-31 19:13:49,Sony,D5803,6.0.1,545c7945-6f55-4043-9ec7-14d60893e659,O9a6rkzrnqMp2GzHZATXU0mnzQSe/ld6dfkvtmASCBo=,1.1427994206991E+020,262,1,T-Mobile,222,1,TIM,,,,46.3110258,11.2186253,-,-,,0,0,61320,86509470,-,-,-,0,-113,-,-,-,-,-
2016-12-31 18:13:58,Sony,D5803,6.0.1,545c7945-6f55-4043-9ec7-14d60893e659,-,1.1427994206991E+020,-,-,-,-,-,-,,,,-,-,-,-,,0,0,-,-,-,-,-,-,-,-,-,-,-,-
2016-12-31 17:30:13,Apple,iPhone7.2,-,05640496F6714C57A9C4A9C76C9218ED,-,1.1427994206991E+020,262,2,Vodafone,262,2,Vodafone,192,1773,400,51.5065892553,10.5474557821,192.168.2.104,79.219.68.217,54.216.74.160,0,-,null,null,-,-,-,-,-,-,-,-,-,-
2016-12-31 12:15:12,Apple,iPhone7.2,-,05640496F6714C57A9C4A9C76C9218ED,-,1.1427994206991E+020,262,2,Vodafone,262,2,Vodafone,77,10990,274,51.8895243807,10.4760262091,100.103.17.201,109.47.1.165,54.216.74.160,8,-,null,null,-,-,-,-,-,-,-,-,-,-
2016-12-31 17:12:46,Sony,D5803,6.0.1,545c7945-6f55-4043-9ec7-14d60893e659,O9a6rkzrnqMp2GzHZATXU0mnzQSe/ld6dfkvtmASCBo=,1.1427994206991E+020,262,1,T-Mobile,222,1,TIM,93.7,137.25,0,46.345103,11.2422672,192.168.1.5,188.218.120.94,54.216.74.160,0,0,61320,86518972,-,-,-,0,-113,-,-,-,-,-
2016-12-31 16:13:23,Sony,D5803,6.0.1,545c7945-6f55-4043-9ec7-14d60893e659,O9a6rkzrnqMp2GzHZATXU0mnzQSe/ld6dfkvtmASCBo=,1.1427994206991E+020,262,1,T-Mobile,222,1,TIM,103.4,114.75,413.8190954774,46.3451023,11.2422684,192.168.1.5,188.218.120.94,54.216.74.160,0,0,61320,86518972,-,-,-,0,-113,-,-,-,-,-
2016-12-31 15:13:11,Sony,D5803,6.0.1,545c7945-6f55-4043-9ec7-14d60893e659,O9a6rkzrnqMp2GzHZATXU0mnzQSe/ld6dfkvtmASCBo=,1.1427994206991E+020,262,1,T-Mobile,222,1,TIM,98,182.25,463.567839196,46.3451686,11.2422006,192.168.1.5,188.218.120.94,54.216.74.160,0,0,61320,3724,-,-,-,0,-113,-,-,-,-,-
2016-12-31 13:48:54,Sony,D5803,6.0.1,545c7945-6f55-4043-9ec7-14d60893e659,O9a6rkzrnqMp2GzHZATXU0mnzQSe/ld6dfkvtmASCBo=,1.1427994206991E+020,262,1,T-Mobile,222,1,TIM,,,,46.3451032,11.242268,-,-,,0,16,35029,3724,5,0,-105,-,-,-,-,-,-,-
2016-12-31 12:49:15,Sony,D5803,6.0.1,545c7945-6f55-4043-9ec7-14d60893e659,O9a6rkzrnqMp2GzHZATXU0mnzQSe/ld6dfkvtmASCBo=,1.1427994206991E+020,262,1,T-Mobile,222,1,TIM,115.5,177.75,490.7035175879,46.3450836,11.2423242,192.168.1.5,188.218.120.94,54.78.38.85,0,0,61320,86518972,-,-,-,0,-113,-,-,-,-,-
2016-12-31 11:49:13,Sony,D5803,6.0.1,545c7945-6f55-4043-9ec7-14d60893e659,O9a6rkzrnqMp2GzHZATXU0mnzQSe/ld6dfkvtmASCBo=,1.1427994206991E+020,262,1,T-Mobile,222,1,TIM,107.1,177.75,490.7035175879,46.3451027,11.2422683,192.168.1.5,188.218.120.94,54.216.74.160,0,35,35029,3724,11,0,-97,-,-,-,-,-,-,-
2016-12-31 10:49:13,Sony,D5803,6.0.1,545c7945-6f55-4043-9ec7-14d60893e659,O9a6rkzrnqMp2GzHZATXU0mnzQSe/ld6dfkvtmASCBo=,1.1427994206991E+020,262,1,T-Mobile,222,1,TIM,,,,46.3352267,11.2510204,-,-,,0,0,61320,86514833,-,-,-,0,-113,-,-,-,-,-
2016-12-31 11:04:49,Apple,iPhone7.2,-,05640496F6714C57A9C4A9C76C9218ED,-,1.1427994206991E+020,262,2,Vodafone,262,2,Vodafone,105,5908,346,51.9007768343,10.5328680854,100.103.17.201,109.47.1.165,54.216.74.160,8,-,null,null,-,-,-,-,-,-,-,-,-,-
2016-12-31 09:48:49,Sony,D5803,6.0.1,545c7945-6f55-4043-9ec7-14d60893e659,O9a6rkzrnqMp2GzHZATXU0mnzQSe/ld6dfkvtmASCBo=,1.1427994206991E+020,262,1,T-Mobile,222,1,TIM,99.2,153,486.1809045226,46.345086,11.2423179,192.168.1.5,188.218.120.94,54.216.74.160,0,0,61320,86518972,-,-,-,0,-113,-,-,-,-,-
2016-12-31 08:49:08,Sony,D5803,6.0.1,545c7945-6f55-4043-9ec7-14d60893e659,O9a6rkzrnqMp2GzHZATXU0mnzQSe/ld6dfkvtmASCBo=,1.1427994206991E+020,262,1,T-Mobile,222,1,TIM,98.2,139.5,495.2261306533,46.3450698,11.2423601,192.168.1.5,188.218.120.94,54.216.74.160,0,0,61320,86518972,-,-,-,0,-113,-,-,-,-,-
2016-12-31 07:50:46,Sony,D5803,6.0.1,545c7945-6f55-4043-9ec7-14d60893e659,O9a6rkzrnqMp2GzHZATXU0mnzQSe/ld6dfkvtmASCBo=,1.1427994206991E+020,262,1,T-Mobile,222,1,TIM,100.6,3350.25,490.7035175879,46.345103,11.2422682,192.168.1.5,188.218.120.94,54.78.38.85,0,0,61320,86518972,-,-,-,0,-113,-,-,-,-,-
2016-12-31 06:55:02,Sony,D5803,6.0.1,545c7945-6f55-4043-9ec7-14d60893e659,O9a6rkzrnqMp2GzHZATXU0mnzQSe/ld6dfkvtmASCBo=,1.1427994206991E+020,262,1,T-Mobile,222,1,TIM,,,,46.345136,11.242212,-,-,,0,0,61320,86518972,-,-,-,0,-113,-,-,-,-,-
2016-12-31 05:49:32,Sony,D5803,6.0.1,545c7945-6f55-4043-9ec7-14d60893e659,O9a6rkzrnqMp2GzHZATXU0mnzQSe/ld6dfkvtmASCBo=,1.1427994206991E+020,262,1,T-Mobile,222,1,TIM,97.6,1741.5,492.9648241206,46.3451189,11.2422365,192.168.1.5,188.218.120.94,54.216.74.160,0,0,61320,86518972,-,-,-,0,-113,-,-,-,-,-
2016-12-31 05:47:16,Sony,D5803,6.0.1,545c7945-6f55-4043-9ec7-14d60893e659,O9a6rkzrnqMp2GzHZATXU0mnzQSe/ld6dfkvtmASCBo=,1.1427994206991E+020,262,1,T-Mobile,222,1,TIM,92,3656.25,477.135678392,46.3451047,11.2422686,192.168.1.5,188.218.120.94,54.216.74.160,0,0,61320,86518972,-,-,-,0,-113,-,-,-,-,-
2016-12-31 01:50:03,Sony,D5803,6.0.1,545c7945-6f55-4043-9ec7-14d60893e659,O9a6rkzrnqMp2GzHZATXU0mnzQSe/ld6dfkvtmASCBo=,1.1427994206991E+020,262,1,T-Mobile,222,1,TIM,,,,46.3451419,11.2422062,-,-,,0,0,61320,86518972,-,-,-,0,-113,-,-,-,-,-
2016-12-30 23:49:07,Sony,D5803,6.0.1,545c7945-6f55-4043-9ec7-14d60893e659,O9a6rkzrnqMp2GzHZATXU0mnzQSe/ld6dfkvtmASCBo=,1.1427994206991E+020,262,1,T-Mobile,222,1,TIM,,,,46.3451304,11.2422197,-,-,,0,0,61320,86518972,-,-,-,0,-113,-,-,-,-,-
2016-12-30 22:48:50,Sony,D5803,6.0.1,545c7945-6f55-4043-9ec7-14d60893e659,O9a6rkzrnqMp2GzHZATXU0mnzQSe/ld6dfkvtmASCBo=,1.1427994206991E+020,262,1,T-Mobile,222,1,TIM,98.2,162,492.9648241206,46.345103,11.2422682,192.168.1.5,188.218.120.94,54.216.74.160,0,0,61320,86518972,-,-,-,0,-113,-,-,-,-,-
2016-12-30 20:11:52,Sony,D5803,6.0.1,545c7945-6f55-4043-9ec7-14d60893e659,-,1.1427994206991E+020,-,-,-,-,-,-,147.5,148.5,208.040201005,46.3548565,11.2507618,192.168.1.5,188.218.120.94,54.78.38.85,0,29,23065,55110,9,0,-97,-,-,-,-,-,-,-
2016-12-30 19:12:42,Sony,D5803,6.0.1,545c7945-6f55-4043-9ec7-14d60893e659,O9a6rkzrnqMp2GzHZATXU0mnzQSe/ld6dfkvtmASCBo=,1.1427994206991E+020,262,1,T-Mobile,222,1,TIM,,,,46.341848,11.2631944,-,-,,0,25,35029,11649,8,0,-101,-,-,-,-,-,-,-
2016-12-30 18:12:16,Sony,D5803,6.0.1,545c7945-6f55-4043-9ec7-14d60893e659,O9a6rkzrnqMp2GzHZATXU0mnzQSe/ld6dfkvtmASCBo=,1.1427994206991E+020,262,1,T-Mobile,222,1,TIM,,,,46.3505056,11.2461233,-,-,,0,25,35029,3724,8,0,-99,-,-,-,-,-,-,-
2016-12-30 17:05:10,Sony,D5803,6.0.1,545c7945-6f55-4043-9ec7-14d60893e659,O9a6rkzrnqMp2GzHZATXU0mnzQSe/ld6dfkvtmASCBo=,1.1427994206991E+020,262,1,T-Mobile,222,1,TIM,98.5,166.5,490.7035175879,46.3451027,11.2422681,192.168.1.6,188.218.120.94,54.216.74.160,0,41,35029,3724,13,0,-87,-,-,-,-,-,-,-
2016-12-30 16:06:36,Sony,D5803,6.0.1,545c7945-6f55-4043-9ec7-14d60893e659,O9a6rkzrnqMp2GzHZATXU0mnzQSe/ld6dfkvtmASCBo=,1.1427994206991E+020,262,1,T-Mobile,222,1,TIM,,,,46.46390565,11.26893156,-,-,,0,0,61320,86518703,-,-,-,0,-113,-,-,-,-,-
2016-12-30 15:06:15,Sony,D5803,6.0.1,545c7945-6f55-4043-9ec7-14d60893e659,O9a6rkzrnqMp2GzHZATXU0mnzQSe/ld6dfkvtmASCBo=,1.1427994206991E+020,262,1,T-Mobile,222,1,TIM,,,,46.6687218,11.24423758,-,-,,0,48,61321,86580366,-,-,-,15,-83,-,-,-,-,-
2016-12-30 14:05:08,Sony,D5803,6.0.1,545c7945-6f55-4043-9ec7-14d60893e659,O9a6rkzrnqMp2GzHZATXU0mnzQSe/ld6dfkvtmASCBo=,1.1427994206991E+020,262,1,T-Mobile,222,1,TIM,,,,46.68778354,11.2768932,-,-,,0,16,35029,19490,5,0,-103,-,-,-,-,-,-,-
2016-12-30 13:05:36,Sony,D5803,6.0.1,545c7945-6f55-4043-9ec7-14d60893e659,O9a6rkzrnqMp2GzHZATXU0mnzQSe/ld6dfkvtmASCBo=,1.1427994206991E+020,262,1,T-Mobile,222,1,TIM,,,,46.69115133,11.27552216,-,-,,0,35,35029,43094,11,0,-95,-,-,-,-,-,-,-
2016-12-30 12:05:51,Sony,D5803,6.0.1,545c7945-6f55-4043-9ec7-14d60893e659,O9a6rkzrnqMp2GzHZATXU0mnzQSe/ld6dfkvtmASCBo=,1.1427994206991E+020,262,1,T-Mobile,222,1,TIM,,,,46.68545511,11.27411501,-,-,,0,29,35029,20733,9,0,-99,-,-,-,-,-,-,-
2016-12-30 11:05:16,Sony,D5803,6.0.1,545c7945-6f55-4043-9ec7-14d60893e659,O9a6rkzrnqMp2GzHZATXU0mnzQSe/ld6dfkvtmASCBo=,1.1427994206991E+020,262,1,T-Mobile,222,1,TIM,,,,46.68574607,11.2738301,-,-,,0,25,0,-1,8,0,-113,-,-,-,-,-,-,-
2016-12-30 10:05:07,Sony,D5803,6.0.1,545c7945-6f55-4043-9ec7-14d60893e659,O9a6rkzrnqMp2GzHZATXU0mnzQSe/ld6dfkvtmASCBo=,1.1427994206991E+020,262,1,T-Mobile,222,88,Wind,,,,46.68542811,11.27447649,-,-,,0,0,61321,18403954,-,-,-,0,-113,-,-,-,-,-
2016-12-30 09:06:22,Sony,D5803,6.0.1,545c7945-6f55-4043-9ec7-14d60893e659,O9a6rkzrnqMp2GzHZATXU0mnzQSe/ld6dfkvtmASCBo=,1.1427994206991E+020,262,1,T-Mobile,222,1,TIM,,,,46.67962397,11.25983969,-,-,,0,0,61321,86583106,-,-,-,0,-113,-,-,-,-,-
2016-12-30 08:05:18,Sony,D5803,6.0.1,545c7945-6f55-4043-9ec7-14d60893e659,O9a6rkzrnqMp2GzHZATXU0mnzQSe/ld6dfkvtmASCBo=,1.1427994206991E+020,262,1,T-Mobile,222,1,TIM,,,,46.67077933,11.21067626,-,-,,0,25,35029,19525,8,0,-95,-,-,-,-,-,-,-
2016-12-30 02:26:04,Sony,D5803,6.0.1,545c7945-6f55-4043-9ec7-14d60893e659,-,1.1427994206991E+020,-,-,-,-,-,-,,,,-,-,-,-,,0,0,-,-,-,-,-,-,-,-,-,-,-,-
2016-12-30 00:27:01,Sony,D5803,6.0.1,545c7945-6f55-4043-9ec7-14d60893e659,-,1.1427994206991E+020,-,-,-,-,-,-,,,,-,-,-,-,,0,0,-,-,-,-,-,-,-,-,-,-,-,-
2016-12-29 20:35:00,Sony,D5803,6.0.1,545c7945-6f55-4043-9ec7-14d60893e659,O9a6rkzrnqMp2GzHZATXU0mnzQSe/ld6dfkvtmASCBo=,1.1427994206991E+020,262,1,T-Mobile,222,1,TIM,,,,46.3465887,11.2679906,-,-,,0,0,61320,86518972,-,-,-,0,-113,-,-,-,-,-
2016-12-29 19:34:44,Sony,D5803,6.0.1,545c7945-6f55-4043-9ec7-14d60893e659,O9a6rkzrnqMp2GzHZATXU0mnzQSe/ld6dfkvtmASCBo=,1.1427994206991E+020,262,1,T-Mobile,222,1,TIM,,,,46.3465887,11.2679906,-,-,,0,0,61320,86518972,-,-,-,0,-113,-,-,-,-,-
2016-12-30 06:26:06,Sony,D5803,6.0.1,545c7945-6f55-4043-9ec7-14d60893e659,O9a6rkzrnqMp2GzHZATXU0mnzQSe/ld6dfkvtmASCBo=,1.1427994206991E+020,262,1,T-Mobile,222,1,TIM,,0,0,46.3352267,11.2510204,-,-,54.216.74.160,0,0,61320,86514833,-,-,-,0,-113,-,-,-,-,-
2016-12-30 05:26:05,Sony,D5803,6.0.1,545c7945-6f55-4043-9ec7-14d60893e659,-,1.1427994206991E+020,-,-,-,-,-,-,,,,-,-,-,-,,0,0,-,-,-,-,-,-,-,-,-,-,-,-
2016-12-30 04:26:04,Sony,D5803,6.0.1,545c7945-6f55-4043-9ec7-14d60893e659,-,1.1427994206991E+020,-,-,-,-,-,-,,,,46.34511579,11.242722,-,-,,0,0,-,-,-,-,-,-,-,-,-,-,-,-
2016-12-30 03:26:04,Sony,D5803,6.0.1,545c7945-6f55-4043-9ec7-14d60893e659,-,1.1427994206991E+020,-,-,-,-,-,-,,,,-,-,-,-,,0,0,-,-,-,-,-,-,-,-,-,-,-,-
2016-12-30 01:29:12,Sony,D5803,6.0.1,545c7945-6f55-4043-9ec7-14d60893e659,-,1.1427994206991E+020,-,-,-,-,-,-,,,,-,-,-,-,,0,0,-,-,-,-,-,-,-,-,-,-,-,-
2016-12-29 23:26:08,Sony,D5803,6.0.1,545c7945-6f55-4043-9ec7-14d60893e659,-,1.1427994206991E+020,-,-,-,-,-,-,,,,-,-,-,-,,0,0,-,-,-,-,-,-,-,-,-,-,-,-
2016-12-29 22:26:04,Sony,D5803,6.0.1,545c7945-6f55-4043-9ec7-14d60893e659,-,1.1427994206991E+020,-,-,-,-,-,-,,,,-,-,-,-,,0,0,-,-,-,-,-,-,-,-,-,-,-,-
2016-12-29 20:35:00,Sony,D5803,6.0.1,545c7945-6f55-4043-9ec7-14d60893e659,O9a6rkzrnqMp2GzHZATXU0mnzQSe/ld6dfkvtmASCBo=,1.1427994206991E+020,262,1,T-Mobile,222,1,TIM,,,,46.3465887,11.2679906,-,-,,0,0,61320,86518972,-,-,-,0,-113,-,-,-,-,-
2016-12-29 21:22:12,samsung,SM-G920F,6.0.1,84884dd4-59f6-4656-9949-249df8f4bc67,HqZ8qNQO0Uyb4JGeFXR2nBHls/mHNaLBhpFfn4nH/wE=,1.1427994206991E+020,268,1,Vodafone,268,1,Vodafone,67,12154.15,1039.0295226131,-,-,192.168.0.11,79.169.124.180,54.216.74.160,0,100,5,22174102,-,-,-,31,-51,-,-,-,-,-
2016-12-29 20:37:11,samsung,SM-G920F,6.0.1,84884dd4-59f6-4656-9949-249df8f4bc67,HqZ8qNQO0Uyb4JGeFXR2nBHls/mHNaLBhpFfn4nH/wE=,1.1427994206991E+020,268,1,Vodafone,268,1,Vodafone,,1814.525,0,-,-,192.168.0.11,79.169.124.180,54.78.38.85,0,100,5,261889,-,-,-,-,-,97,102,2,-7,10
2016-12-29 20:07:11,samsung,SM-G920F,6.0.1,84884dd4-59f6-4656-9949-249df8f4bc67,HqZ8qNQO0Uyb4JGeFXR2nBHls/mHNaLBhpFfn4nH/wE=,1.1427994206991E+020,268,1,Vodafone,268,1,Vodafone,66.1,12147.3625,1103.9761306533,-,-,192.168.0.11,79.169.124.180,54.78.38.85,0,100,5,261892,-,-,-,-,-,97,100,2,-7,17
2016-12-29 19:37:11,samsung,SM-G920F,6.0.1,84884dd4-59f6-4656-9949-249df8f4bc67,HqZ8qNQO0Uyb4JGeFXR2nBHls/mHNaLBhpFfn4nH/wE=,1.1427994206991E+020,268,1,Vodafone,268,1,Vodafone,57.9,12163.2,1127.6884422111,-,-,192.168.0.11,79.169.124.180,54.216.74.160,0,100,5,22183563,-,-,-,31,-51,-,-,-,-,-
2016-12-29 19:07:12,samsung,SM-G920F,6.0.1,84884dd4-59f6-4656-9949-249df8f4bc67,HqZ8qNQO0Uyb4JGeFXR2nBHls/mHNaLBhpFfn4nH/wE=,1.1427994206991E+020,268,1,Vodafone,268,1,Vodafone,,,,-,-,-,-,,0,100,5,261892,-,-,-,-,-,97,108,2,-6,14
2016-12-29 18:31:36,Sony,D5803,6.0.1,545c7945-6f55-4043-9ec7-14d60893e659,O9a6rkzrnqMp2GzHZATXU0mnzQSe/ld6dfkvtmASCBo=,1.1427994206991E+020,262,1,T-Mobile,222,1,TIM,99.5,173.25,479.3969849246,46.345102,11.242268,192.168.1.5,188.218.120.94,54.216.74.160,0,0,61320,86518972,-,-,-,0,-113,-,-,-,-,-
2016-12-29 17:13:13,Sony,D5803,6.0.1,545c7945-6f55-4043-9ec7-14d60893e659,O9a6rkzrnqMp2GzHZATXU0mnzQSe/ld6dfkvtmASCBo=,1.1427994206991E+020,262,1,T-Mobile,222,1,TIM,97.2,164.25,490.7035175879,46.345103,11.2422683,192.168.1.5,188.218.120.94,54.78.38.85,0,0,61320,86510982,-,-,-,0,-113,-,-,-,-,-
2016-12-29 16:13:18,Sony,D5803,6.0.1,545c7945-6f55-4043-9ec7-14d60893e659,O9a6rkzrnqMp2GzHZATXU0mnzQSe/ld6dfkvtmASCBo=,1.1427994206991E+020,262,1,T-Mobile,222,1,TIM,,,,46.3451238,11.2422294,-,-,,0,0,61320,86518972,-,-,-,0,-113,-,-,-,-,-
2016-12-29 15:09:36,Sony,D5803,6.0.1,545c7945-6f55-4043-9ec7-14d60893e659,O9a6rkzrnqMp2GzHZATXU0mnzQSe/ld6dfkvtmASCBo=,1.1427994206991E+020,262,1,T-Mobile,222,1,TIM,97.5,159.75,490.7035175879,46.34529596,11.24219533,192.168.1.5,188.218.120.94,54.216.74.160,0,0,61320,86518972,-,-,-,0,-113,-,-,-,-,-
2016-12-29 14:09:37,Sony,D5803,6.0.1,545c7945-6f55-4043-9ec7-14d60893e659,O9a6rkzrnqMp2GzHZATXU0mnzQSe/ld6dfkvtmASCBo=,1.1427994206991E+020,262,1,T-Mobile,222,1,TIM,,,,46.3465887,11.2679906,-,-,,0,0,61320,86509470,-,-,-,0,-113,-,-,-,-,-
2016-12-29 13:10:19,Sony,D5803,6.0.1,545c7945-6f55-4043-9ec7-14d60893e659,O9a6rkzrnqMp2GzHZATXU0mnzQSe/ld6dfkvtmASCBo=,1.1427994206991E+020,262,1,T-Mobile,222,1,TIM,,,,46.3465887,11.2679906,-,-,,0,3,61320,86510982,-,-,-,1,-111,-,-,-,-,-
2016-12-29 12:09:30,Sony,D5803,6.0.1,545c7945-6f55-4043-9ec7-14d60893e659,O9a6rkzrnqMp2GzHZATXU0mnzQSe/ld6dfkvtmASCBo=,1.1427994206991E+020,262,1,T-Mobile,222,1,TIM,98.9,162,492.9648241206,46.3451031,11.2422685,192.168.1.5,188.218.120.94,54.216.74.160,0,0,61320,86513088,-,-,-,0,-113,-,-,-,-,-
2016-12-29 11:09:31,Sony,D5803,6.0.1,545c7945-6f55-4043-9ec7-14d60893e659,O9a6rkzrnqMp2GzHZATXU0mnzQSe/ld6dfkvtmASCBo=,1.1427994206991E+020,262,1,T-Mobile,222,10,Vodafone,101.2,153,495.2261306533,46.3451027,11.242268,192.168.1.5,188.218.120.94,54.78.38.85,0,0,25059,9943788,-,-,-,0,-113,-,-,-,-,-
2016-12-29 09:45:18,Apple,iPhone7.2,-,05640496F6714C57A9C4A9C76C9218ED,-,1.1427994206991E+020,262,2,Vodafone,262,2,Vodafone,48,10284,866,51.806546934,10.4568795953,192.168.0.103,79.193.22.11,54.216.74.160,0,-,null,null,-,-,-,-,-,-,-,-,-,-
2016-12-29 09:39:07,Sony,D5803,6.0.1,545c7945-6f55-4043-9ec7-14d60893e659,O9a6rkzrnqMp2GzHZATXU0mnzQSe/ld6dfkvtmASCBo=,1.1427994206991E+020,262,1,T-Mobile,222,1,TIM,95,200.25,479.3969849246,46.3451682,11.242484,192.168.1.5,188.218.120.94,54.216.74.160,0,0,61320,86518972,-,-,-,0,-113,-,-,-,-,-
2016-12-29 09:32:28,Sony,D5803,6.0.1,545c7945-6f55-4043-9ec7-14d60893e659,-,1.1427994206991E+020,-,-,-,-,-,-,,,,-,-,-,-,,0,0,-,-,-,-,-,-,-,-,-,-,-,-
2016-12-29 08:14:18,Sony,D5803,6.0.1,545c7945-6f55-4043-9ec7-14d60893e659,-,1.1427994206991E+020,-,-,-,-,-,-,,,,-,-,-,-,,0,0,-,-,-,-,-,-,-,-,-,-,-,-
2016-12-29 04:23:41,Sony,D5803,6.0.1,545c7945-6f55-4043-9ec7-14d60893e659,-,1.1427994206991E+020,-,-,-,-,-,-,,,,-,-,-,-,,0,0,-,-,-,-,-,-,-,-,-,-,-,-
2016-12-29 02:39:57,Sony,D5803,6.0.1,545c7945-6f55-4043-9ec7-14d60893e659,-,1.1427994206991E+020,-,-,-,-,-,-,,,,-,-,-,-,,0,0,-,-,-,-,-,-,-,-,-,-,-,-
2016-12-29 01:42:25,Sony,D5803,6.0.1,545c7945-6f55-4043-9ec7-14d60893e659,-,1.1427994206991E+020,-,-,-,-,-,-,,,,-,-,-,-,,0,0,-,-,-,-,-,-,-,-,-,-,-,-
2016-12-29 00:40:20,Sony,D5803,6.0.1,545c7945-6f55-4043-9ec7-14d60893e659,-,1.1427994206991E+020,-,-,-,-,-,-,,,,-,-,-,-,,0,0,-,-,-,-,-,-,-,-,-,-,-,-
2016-12-28 23:39:55,Sony,D5803,6.0.1,545c7945-6f55-4043-9ec7-14d60893e659,-,1.1427994206991E+020,-,-,-,-,-,-,,,,-,-,-,-,,0,0,-,-,-,-,-,-,-,-,-,-,-,-
2016-12-28 22:39:56,Sony,D5803,6.0.1,545c7945-6f55-4043-9ec7-14d60893e659,O9a6rkzrnqMp2GzHZATXU0mnzQSe/ld6dfkvtmASCBo=,1.1427994206991E+020,262,1,T-Mobile,222,1,TIM,100,31.5,492.9648241206,46.3450565,11.2424043,192.168.1.9,188.218.120.94,54.78.38.85,0,32,35029,3724,10,0,-89,-,-,-,-,-,-,-
2016-12-28 21:39:15,Sony,D5803,6.0.1,545c7945-6f55-4043-9ec7-14d60893e659,O9a6rkzrnqMp2GzHZATXU0mnzQSe/ld6dfkvtmASCBo=,1.1427994206991E+020,262,1,T-Mobile,222,1,TIM,99.8,63,492.9648241206,46.3451027,11.2422681,192.168.1.9,188.218.120.94,54.216.74.160,0,0,61320,86518972,-,-,-,0,-113,-,-,-,-,-
2016-12-28 20:13:16,Sony,D5803,6.0.1,545c7945-6f55-4043-9ec7-14d60893e659,O9a6rkzrnqMp2GzHZATXU0mnzQSe/ld6dfkvtmASCBo=,1.1427994206991E+020,262,1,T-Mobile,222,1,TIM,98.1,69.75,490.7035175879,46.3451027,11.2422683,192.168.1.9,188.218.120.94,54.216.74.160,0,0,61320,86518972,-,-,-,0,-113,-,-,-,-,-
2016-12-28 19:09:38,Sony,D5803,6.0.1,545c7945-6f55-4043-9ec7-14d60893e659,O9a6rkzrnqMp2GzHZATXU0mnzQSe/ld6dfkvtmASCBo=,1.1427994206991E+020,262,1,T-Mobile,222,10,Vodafone,182.2,40.5,488.4422110553,46.3451027,11.242268,192.168.1.9,188.218.120.94,54.216.74.160,0,6,23065,55110,2,0,-87,-,-,-,-,-,-,-
2016-12-28 18:10:22,Sony,D5803,6.0.1,545c7945-6f55-4043-9ec7-14d60893e659,O9a6rkzrnqMp2GzHZATXU0mnzQSe/ld6dfkvtmASCBo=,1.1427994206991E+020,262,1,T-Mobile,222,1,TIM,99.3,45,492.9648241206,46.3451032,11.2422685,192.168.1.9,188.218.120.94,54.216.74.160,0,0,61320,86510982,-,-,-,0,-113,-,-,-,-,-
2016-12-28 17:10:07,Sony,D5803,6.0.1,545c7945-6f55-4043-9ec7-14d60893e659,O9a6rkzrnqMp2GzHZATXU0mnzQSe/ld6dfkvtmASCBo=,1.1427994206991E+020,262,1,T-Mobile,222,1,TIM,113.3,42.75,194.472361809,46.345102,11.2422693,192.168.1.9,188.218.120.94,54.216.74.160,0,0,61320,86518972,-,-,-,0,-113,-,-,-,-,-
2016-12-28 16:09:33,Sony,D5803,6.0.1,545c7945-6f55-4043-9ec7-14d60893e659,O9a6rkzrnqMp2GzHZATXU0mnzQSe/ld6dfkvtmASCBo=,1.1427994206991E+020,262,1,T-Mobile,222,10,Vodafone,153.8,45,386.6834170854,46.3413859,11.3262209,192.168.1.9,188.218.120.94,54.216.74.160,0,0,25059,9943791,-,-,-,0,-113,-,-,-,-,-
2016-12-28 15:09:42,Sony,D5803,6.0.1,545c7945-6f55-4043-9ec7-14d60893e659,O9a6rkzrnqMp2GzHZATXU0mnzQSe/ld6dfkvtmASCBo=,1.1427994206991E+020,262,1,T-Mobile,222,10,Vodafone,181,65.25,474.8743718593,46.3413859,11.3262209,192.168.1.9,188.218.120.94,54.216.74.160,0,0,25059,9943788,0,0,-113,-,-,-,-,-,-,-
2016-12-28 14:10:01,Sony,D5803,6.0.1,545c7945-6f55-4043-9ec7-14d60893e659,O9a6rkzrnqMp2GzHZATXU0mnzQSe/ld6dfkvtmASCBo=,1.1427994206991E+020,262,1,T-Mobile,222,1,TIM,118.3,2637,0,46.3280507,11.2354238,192.168.1.7,95.244.107.46,54.216.74.160,0,0,61320,86513088,-,-,-,0,-113,-,-,-,-,-
2016-12-28 13:11:08,Sony,D5803,6.0.1,545c7945-6f55-4043-9ec7-14d60893e659,O9a6rkzrnqMp2GzHZATXU0mnzQSe/ld6dfkvtmASCBo=,1.1427994206991E+020,262,1,T-Mobile,222,1,TIM,,,,46.328051,11.235423,-,-,,0,0,61320,86507775,-,-,-,0,-113,-,-,-,-,-
2016-12-28 12:01:31,Sony,D5803,6.0.1,545c7945-6f55-4043-9ec7-14d60893e659,O9a6rkzrnqMp2GzHZATXU0mnzQSe/ld6dfkvtmASCBo=,1.1427994206991E+020,262,1,T-Mobile,222,1,TIM,102.7,5847.75,393.4673366834,46.3280508,11.2354243,192.168.1.7,95.244.107.46,54.216.74.160,0,0,61320,86513088,-,-,-,0,-113,-,-,-,-,-
2016-12-28 11:02:06,Sony,D5803,6.0.1,545c7945-6f55-4043-9ec7-14d60893e659,O9a6rkzrnqMp2GzHZATXU0mnzQSe/ld6dfkvtmASCBo=,1.1427994206991E+020,262,1,T-Mobile,222,1,TIM,,,,46.31889589,11.22806669,-,-,,0,19,61320,86517121,-,-,-,6,-101,-,-,-,-,-
2016-12-28 10:01:31,Sony,D5803,6.0.1,545c7945-6f55-4043-9ec7-14d60893e659,O9a6rkzrnqMp2GzHZATXU0mnzQSe/ld6dfkvtmASCBo=,1.1427994206991E+020,262,1,T-Mobile,222,88,Wind,147.6,46.6875,293.9698492462,46.3548565,11.2507618,192.168.1.2,188.218.120.94,54.216.74.160,0,22,23065,55110,7,0,-99,-,-,-,-,-,-,-
2016-12-28 08:44:26,Sony,D5803,6.0.1,545c7945-6f55-4043-9ec7-14d60893e659,O9a6rkzrnqMp2GzHZATXU0mnzQSe/ld6dfkvtmASCBo=,1.1427994206991E+020,262,1,T-Mobile,222,1,TIM,223.3,60.75,366.3316582915,46.345103,11.2422677,192.168.1.2,188.218.120.94,54.216.74.160,0,0,61320,86518972,-,-,-,0,-113,-,-,-,-,-
2016-12-28 07:45:15,Sony,D5803,6.0.1,545c7945-6f55-4043-9ec7-14d60893e659,O9a6rkzrnqMp2GzHZATXU0mnzQSe/ld6dfkvtmASCBo=,1.1427994206991E+020,262,1,T-Mobile,222,1,TIM,96.1,4236.75,492.9648241206,46.345103,11.2422682,192.168.1.2,188.218.120.94,54.216.74.160,0,0,61320,86518972,-,-,-,0,-113,-,-,-,-,-
2016-12-28 06:45:32,Sony,D5803,6.0.1,545c7945-6f55-4043-9ec7-14d60893e659,O9a6rkzrnqMp2GzHZATXU0mnzQSe/ld6dfkvtmASCBo=,1.1427994206991E+020,262,1,T-Mobile,222,1,TIM,99.2,2828.25,479.3969849246,46.3451023,11.2422684,192.168.1.2,188.218.120.94,54.216.74.160,0,0,,,-,-,-,0,-113,-,-,-,-,-
2016-12-28 05:46:21,Sony,D5803,6.0.1,545c7945-6f55-4043-9ec7-14d60893e659,O9a6rkzrnqMp2GzHZATXU0mnzQSe/ld6dfkvtmASCBo=,1.1427994206991E+020,262,1,T-Mobile,222,1,TIM,97.9,2659.5,495.2261306533,46.345103,11.2422682,192.168.1.2,188.218.120.94,54.78.38.85,0,0,61320,86518972,-,-,-,0,-113,-,-,-,-,-
2016-12-28 04:45:09,Sony,D5803,6.0.1,545c7945-6f55-4043-9ec7-14d60893e659,O9a6rkzrnqMp2GzHZATXU0mnzQSe/ld6dfkvtmASCBo=,1.1427994206991E+020,262,1,T-Mobile,222,1,TIM,97.4,2758.5,495.2261306533,46.3451039,11.2422677,192.168.1.2,188.218.120.94,54.216.74.160,0,0,61320,86518972,-,-,-,0,-113,-,-,-,-,-
2016-12-28 03:44:26,Sony,D5803,6.0.1,545c7945-6f55-4043-9ec7-14d60893e659,O9a6rkzrnqMp2GzHZATXU0mnzQSe/ld6dfkvtmASCBo=,1.1427994206991E+020,262,1,T-Mobile,222,1,TIM,99.4,2979,495.2261306533,46.3451039,11.2422677,192.168.1.2,188.218.120.94,54.216.74.160,0,0,61320,86518972,-,-,-,0,-113,-,-,-,-,-
2016-12-28 02:45:45,Sony,D5803,6.0.1,545c7945-6f55-4043-9ec7-14d60893e659,O9a6rkzrnqMp2GzHZATXU0mnzQSe/ld6dfkvtmASCBo=,1.1427994206991E+020,262,1,T-Mobile,222,1,TIM,95.9,3397.5,488.4422110553,46.3451027,11.2422681,192.168.1.2,188.218.120.94,54.216.74.160,0,0,61320,86518972,-,-,-,0,-113,-,-,-,-,-
2016-12-28 01:45:03,Sony,D5803,6.0.1,545c7945-6f55-4043-9ec7-14d60893e659,O9a6rkzrnqMp2GzHZATXU0mnzQSe/ld6dfkvtmASCBo=,1.1427994206991E+020,262,1,T-Mobile,222,1,TIM,275,1107,192.2110552764,46.3451039,11.2422677,192.168.1.2,188.218.120.94,54.216.74.160,0,0,61320,86518972,-,-,-,0,-113,-,-,-,-,-
2016-12-28 00:09:40,Sony,D5803,6.0.1,545c7945-6f55-4043-9ec7-14d60893e659,O9a6rkzrnqMp2GzHZATXU0mnzQSe/ld6dfkvtmASCBo=,1.1427994206991E+020,262,1,T-Mobile,222,1,TIM,115.2,2281.5,436.432160804,46.3451039,11.2422677,192.168.1.2,188.218.120.94,54.216.74.160,0,0,61320,86518972,-,-,-,0,-113,-,-,-,-,-
2016-12-27 22:55:10,Sony,D5803,6.0.1,545c7945-6f55-4043-9ec7-14d60893e659,O9a6rkzrnqMp2GzHZATXU0mnzQSe/ld6dfkvtmASCBo=,1.1427994206991E+020,262,1,T-Mobile,222,1,TIM,,,,46.3465887,11.2679906,-,-,,0,0,61320,86518972,-,-,-,0,-113,-,-,-,-,-
2016-12-27 21:11:12,Sony,D5803,6.0.1,545c7945-6f55-4043-9ec7-14d60893e659,O9a6rkzrnqMp2GzHZATXU0mnzQSe/ld6dfkvtmASCBo=,1.1427994206991E+020,262,1,T-Mobile,222,1,TIM,,,,-,-,-,-,,0,0,61320,86518972,-,-,-,0,-113,-,-,-,-,-
2016-12-27 17:56:53,Sony,D5803,6.0.1,545c7945-6f55-4043-9ec7-14d60893e659,O9a6rkzrnqMp2GzHZATXU0mnzQSe/ld6dfkvtmASCBo=,1.1427994206991E+020,262,1,T-Mobile,222,1,TIM,137,65.25,486.1809045226,46.3451031,11.2422686,192.168.1.2,188.218.120.94,54.216.74.160,0,0,61320,86514833,-,-,-,0,-113,-,-,-,-,-
2016-12-27 16:12:32,Sony,D5803,6.0.1,545c7945-6f55-4043-9ec7-14d60893e659,O9a6rkzrnqMp2GzHZATXU0mnzQSe/ld6dfkvtmASCBo=,1.1427994206991E+020,262,1,T-Mobile,222,1,TIM,98.9,29.25,492.9648241206,46.3451031,11.2422685,192.168.1.2,188.218.120.94,54.78.38.85,0,0,61320,86507775,-,-,-,0,-113,-,-,-,-,-
2016-12-27 15:13:21,Sony,D5803,6.0.1,545c7945-6f55-4043-9ec7-14d60893e659,O9a6rkzrnqMp2GzHZATXU0mnzQSe/ld6dfkvtmASCBo=,1.1427994206991E+020,262,1,T-Mobile,222,1,TIM,,,,46.49712577,11.3575485,-,-,,0,22,61320,86515187,-,-,-,7,-99,-,-,-,-,-
2016-12-27 14:12:31,Sony,D5803,6.0.1,545c7945-6f55-4043-9ec7-14d60893e659,O9a6rkzrnqMp2GzHZATXU0mnzQSe/ld6dfkvtmASCBo=,1.1427994206991E+020,262,1,T-Mobile,222,1,TIM,,,,46.4989318,11.3559307,-,-,,0,0,61320,86516484,-,-,-,0,-113,-,-,-,-,-
2016-12-27 13:13:00,Sony,D5803,6.0.1,545c7945-6f55-4043-9ec7-14d60893e659,O9a6rkzrnqMp2GzHZATXU0mnzQSe/ld6dfkvtmASCBo=,1.1427994206991E+020,262,1,T-Mobile,222,1,TIM,,,,-,-,-,-,,0,0,61320,86521598,-,-,-,0,-113,-,-,-,-,-
2016-12-27 14:34:55,Apple,iPhone7.2,-,05640496F6714C57A9C4A9C76C9218ED,-,1.1427994206991E+020,262,2,Vodafone,262,2,Vodafone,122,10284,839,51.8062406593,10.457383683,192.168.0.100,79.193.63.77,54.216.74.160,0,-,null,null,-,-,-,-,-,-,-,-,-,-
2016-12-27 13:32:27,Apple,iPhone7.2,-,05640496F6714C57A9C4A9C76C9218ED,-,1.1427994206991E+020,262,2,Vodafone,262,2,Vodafone,49,9796,749,51.8065596326,10.4564910941,192.168.0.100,79.193.63.77,54.216.74.160,0,-,null,null,-,-,-,-,-,-,-,-,-,-
2016-12-27 12:12:32,Sony,D5803,6.0.1,545c7945-6f55-4043-9ec7-14d60893e659,O9a6rkzrnqMp2GzHZATXU0mnzQSe/ld6dfkvtmASCBo=,1.1427994206991E+020,262,1,T-Mobile,222,88,Wind,104.2,92.25,0,46.3451027,11.242268,192.168.1.2,188.218.120.94,54.216.74.160,0,0,24066,19334021,-,-,-,0,-113,-,-,-,-,-
2016-12-27 10:43:26,Sony,D5803,6.0.1,545c7945-6f55-4043-9ec7-14d60893e659,O9a6rkzrnqMp2GzHZATXU0mnzQSe/ld6dfkvtmASCBo=,1.1427994206991E+020,262,1,T-Mobile,222,10,Vodafone,112.8,2.25,0,46.345103,11.2422672,192.168.1.2,188.218.120.94,54.78.38.85,0,0,25059,9943794,-,-,-,0,-113,-,-,-,-,-
2016-12-27 09:44:02,Sony,D5803,6.0.1,545c7945-6f55-4043-9ec7-14d60893e659,O9a6rkzrnqMp2GzHZATXU0mnzQSe/ld6dfkvtmASCBo=,1.1427994206991E+020,262,1,T-Mobile,222,1,TIM,98.1,189,495.2261306533,46.3451034,11.2422685,192.168.1.2,188.218.120.94,54.216.74.160,0,0,61320,86510982,-,-,-,0,-113,-,-,-,-,-
2016-12-27 08:59:46,Sony,D5803,6.0.1,545c7945-6f55-4043-9ec7-14d60893e659,O9a6rkzrnqMp2GzHZATXU0mnzQSe/ld6dfkvtmASCBo=,1.1427994206991E+020,262,1,T-Mobile,222,1,TIM,94.4,173.25,488.4422110553,46.345102,11.2422693,192.168.1.2,188.218.120.94,54.216.74.160,0,0,61320,86518972,-,-,-,0,-113,-,-,-,-,-
2016-12-27 07:43:20,Sony,D5803,6.0.1,545c7945-6f55-4043-9ec7-14d60893e659,O9a6rkzrnqMp2GzHZATXU0mnzQSe/ld6dfkvtmASCBo=,1.1427994206991E+020,262,1,T-Mobile,222,1,TIM,99.1,2963.25,483.91959799,46.3451023,11.2422684,192.168.1.2,188.218.120.94,54.216.74.160,0,0,61320,86518972,-,-,-,0,-113,-,-,-,-,-
2016-12-27 06:42:48,Sony,D5803,6.0.1,545c7945-6f55-4043-9ec7-14d60893e659,O9a6rkzrnqMp2GzHZATXU0mnzQSe/ld6dfkvtmASCBo=,1.1427994206991E+020,262,1,T-Mobile,222,1,TIM,98.9,2571.75,495.2261306533,46.3451039,11.2422677,192.168.1.2,188.218.120.94,54.216.74.160,0,0,61320,86518972,-,-,-,0,-113,-,-,-,-,-
2016-12-27 05:25:13,Sony,D5803,6.0.1,545c7945-6f55-4043-9ec7-14d60893e659,O9a6rkzrnqMp2GzHZATXU0mnzQSe/ld6dfkvtmASCBo=,1.1427994206991E+020,262,1,T-Mobile,222,1,TIM,,0,0,46.34518034,11.24233926,-,-,54.216.74.160,0,0,61320,86518972,-,-,-,0,-113,-,-,-,-,-
2016-12-27 05:20:48,Sony,D5803,6.0.1,545c7945-6f55-4043-9ec7-14d60893e659,O9a6rkzrnqMp2GzHZATXU0mnzQSe/ld6dfkvtmASCBo=,1.1427994206991E+020,262,1,T-Mobile,222,1,TIM,,,,46.3465887,11.2679906,-,-,,0,0,61320,86518972,-,-,-,0,-113,-,-,-,-,-
2016-12-27 01:28:33,Sony,D5803,6.0.1,545c7945-6f55-4043-9ec7-14d60893e659,O9a6rkzrnqMp2GzHZATXU0mnzQSe/ld6dfkvtmASCBo=,1.1427994206991E+020,262,1,T-Mobile,222,1,TIM,,,,46.3465887,11.2679906,-,-,,0,0,61320,86518972,-,-,-,0,-113,-,-,-,-,-
2016-12-26 23:27:53,Sony,D5803,6.0.1,545c7945-6f55-4043-9ec7-14d60893e659,O9a6rkzrnqMp2GzHZATXU0mnzQSe/ld6dfkvtmASCBo=,1.1427994206991E+020,262,1,T-Mobile,222,1,TIM,,,,46.3465887,11.2679906,-,-,,0,0,61320,86518972,-,-,-,0,-113,-,-,-,-,-
2016-12-26 22:31:05,Apple,iPhone7.2,-,05640496F6714C57A9C4A9C76C9218ED,-,1.1427994206991E+020,262,2,Vodafone,262,2,Vodafone,59,10208,828,51.8065014622,10.4566256236,192.168.0.100,79.193.63.206,54.216.74.160,0,-,null,null,-,-,-,-,-,-,-,-,-,-
2016-12-26 19:53:55,Apple,iPhone7.2,-,05640496F6714C57A9C4A9C76C9218ED,-,1.1427994206991E+020,262,2,Vodafone,262,2,Vodafone,255,72,0,51.8007033226,10.4480392858,100.75.147.172,109.47.3.236,54.216.74.160,2,-,null,null,-,-,-,-,-,-,-,-,-,-
2016-12-26 22:25:59,Sony,D5803,6.0.1,545c7945-6f55-4043-9ec7-14d60893e659,O9a6rkzrnqMp2GzHZATXU0mnzQSe/ld6dfkvtmASCBo=,1.1427994206991E+020,262,1,T-Mobile,222,1,TIM,96.7,164.25,490.7035175879,46.345103,11.2422682,192.168.1.7,188.218.120.94,54.216.74.160,0,0,61320,86518972,-,-,-,0,-113,-,-,-,-,-
2016-12-26 21:25:10,Sony,D5803,6.0.1,545c7945-6f55-4043-9ec7-14d60893e659,O9a6rkzrnqMp2GzHZATXU0mnzQSe/ld6dfkvtmASCBo=,1.1427994206991E+020,262,1,T-Mobile,222,1,TIM,135.5,128.25,492.9648241206,46.345103,11.2422682,192.168.1.7,188.218.120.94,54.216.74.160,0,0,61320,86518972,-,-,-,0,-113,-,-,-,-,-
2016-12-26 20:25:14,Sony,D5803,6.0.1,545c7945-6f55-4043-9ec7-14d60893e659,O9a6rkzrnqMp2GzHZATXU0mnzQSe/ld6dfkvtmASCBo=,1.1427994206991E+020,262,1,T-Mobile,222,1,TIM,103.4,130.5,388.9447236181,46.3451039,11.2422677,192.168.1.7,188.218.120.94,54.78.38.85,0,0,61320,86518972,-,-,-,0,-113,-,-,-,-,-
2016-12-26 19:53:55,Apple,iPhone7.2,-,05640496F6714C57A9C4A9C76C9218ED,-,1.1427994206991E+020,262,2,Vodafone,262,2,Vodafone,255,72,0,51.8007033226,10.4480392858,100.75.147.172,109.47.3.236,54.216.74.160,2,-,null,null,-,-,-,-,-,-,-,-,-,-
2016-12-26 19:48:06,Apple,iPhone7.2,-,05640496F6714C57A9C4A9C76C9218ED,-,1.1427994206991E+020,262,2,Vodafone,262,2,Vodafone,,0,0,51.800717638,10.4480669958,,,,2,-,null,null,-,-,-,-,-,-,-,-,-,-
2016-12-26 19:24:34,Sony,D5803,6.0.1,545c7945-6f55-4043-9ec7-14d60893e659,O9a6rkzrnqMp2GzHZATXU0mnzQSe/ld6dfkvtmASCBo=,1.1427994206991E+020,262,1,T-Mobile,222,1,TIM,101.7,177.75,495.2261306533,46.345102,11.2422693,192.168.1.7,188.218.120.94,54.216.74.160,0,0,,,-,-,-,0,-113,-,-,-,-,-
2016-12-26 18:25:04,Sony,D5803,6.0.1,545c7945-6f55-4043-9ec7-14d60893e659,O9a6rkzrnqMp2GzHZATXU0mnzQSe/ld6dfkvtmASCBo=,1.1427994206991E+020,262,1,T-Mobile,222,1,TIM,99.6,123.75,495.2261306533,46.3451045,11.2422709,192.168.1.7,188.218.120.94,54.216.74.160,0,0,61320,86514833,-,-,-,0,-113,-,-,-,-,-
2016-12-26 17:26:11,Sony,D5803,6.0.1,545c7945-6f55-4043-9ec7-14d60893e659,O9a6rkzrnqMp2GzHZATXU0mnzQSe/ld6dfkvtmASCBo=,1.1427994206991E+020,262,1,T-Mobile,222,1,TIM,99.9,173.25,492.9648241206,46.3451029,11.2422715,192.168.1.7,188.218.120.94,54.216.74.160,0,0,61320,86514833,-,-,-,0,-113,-,-,-,-,-
2016-12-26 16:24:27,Sony,D5803,6.0.1,545c7945-6f55-4043-9ec7-14d60893e659,O9a6rkzrnqMp2GzHZATXU0mnzQSe/ld6dfkvtmASCBo=,1.1427994206991E+020,262,1,T-Mobile,222,1,TIM,99.1,182.25,490.7035175879,46.3451031,11.2422685,192.168.1.7,188.218.120.94,54.216.74.160,0,32,35029,3724,10,0,-93,-,-,-,-,-,-,-
2016-12-26 15:25:44,Sony,D5803,6.0.1,545c7945-6f55-4043-9ec7-14d60893e659,-,1.1427994206991E+020,-,-,-,-,-,-,,,,-,-,-,-,,0,0,-,-,-,-,-,-,-,-,-,-,-,-
2016-12-26 14:25:01,Sony,D5803,6.0.1,545c7945-6f55-4043-9ec7-14d60893e659,-,1.1427994206991E+020,-,-,-,-,-,-,,,,-,-,-,-,,0,0,-,-,-,-,-,-,-,-,-,-,-,-
2016-12-26 13:25:35,Sony,D5803,6.0.1,545c7945-6f55-4043-9ec7-14d60893e659,O9a6rkzrnqMp2GzHZATXU0mnzQSe/ld6dfkvtmASCBo=,1.1427994206991E+020,262,1,T-Mobile,222,88,Wind,,,,-,-,-,-,,0,0,24066,19343657,-,-,-,0,-113,-,-,-,-,-
2016-12-26 11:53:11,Sony,D5803,6.0.1,545c7945-6f55-4043-9ec7-14d60893e659,O9a6rkzrnqMp2GzHZATXU0mnzQSe/ld6dfkvtmASCBo=,1.1427994206991E+020,262,1,T-Mobile,222,1,TIM,99.4,141.75,488.4422110553,46.3451045,11.2422709,192.168.1.2,188.218.120.94,54.216.74.160,0,0,61320,86510982,-,-,-,0,-113,-,-,-,-,-
2016-12-26 10:54:11,Sony,D5803,6.0.1,545c7945-6f55-4043-9ec7-14d60893e659,O9a6rkzrnqMp2GzHZATXU0mnzQSe/ld6dfkvtmASCBo=,1.1427994206991E+020,262,1,T-Mobile,222,1,TIM,100.9,153,352.7638190955,46.345032,11.24223425,192.168.1.2,188.218.120.94,54.216.74.160,0,0,61320,86518972,-,-,-,0,-113,-,-,-,-,-
2016-12-26 09:54:02,Sony,D5803,6.0.1,545c7945-6f55-4043-9ec7-14d60893e659,O9a6rkzrnqMp2GzHZATXU0mnzQSe/ld6dfkvtmASCBo=,1.1427994206991E+020,262,1,T-Mobile,222,1,TIM,100,157.5,495.2261306533,46.3451032,11.2422685,192.168.1.2,188.218.120.94,54.216.74.160,0,0,61320,86510982,-,-,-,0,-113,-,-,-,-,-
2016-12-26 08:53:42,Sony,D5803,6.0.1,545c7945-6f55-4043-9ec7-14d60893e659,O9a6rkzrnqMp2GzHZATXU0mnzQSe/ld6dfkvtmASCBo=,1.1427994206991E+020,262,1,T-Mobile,222,1,TIM,99.1,150.75,492.9648241206,46.3451029,11.2422715,192.168.1.2,188.218.120.94,54.78.38.85,0,0,61320,86510982,-,-,-,0,-113,-,-,-,-,-
2016-12-26 07:57:03,Sony,D5803,6.0.1,545c7945-6f55-4043-9ec7-14d60893e659,O9a6rkzrnqMp2GzHZATXU0mnzQSe/ld6dfkvtmASCBo=,1.1427994206991E+020,262,1,T-Mobile,222,1,TIM,98.7,3435.75,495.2261306533,46.3451027,11.242268,192.168.1.2,188.218.120.94,54.78.38.85,0,0,61320,86518972,-,-,-,0,-113,-,-,-,-,-
2016-12-26 06:53:56,Sony,D5803,6.0.1,545c7945-6f55-4043-9ec7-14d60893e659,O9a6rkzrnqMp2GzHZATXU0mnzQSe/ld6dfkvtmASCBo=,1.1427994206991E+020,262,1,T-Mobile,222,1,TIM,98.3,3552.75,486.1809045226,46.345102,11.242268,192.168.1.2,188.218.120.94,54.78.38.85,0,19,35029,19551,6,0,-101,-,-,-,-,-,-,-
2016-12-26 05:53:36,Sony,D5803,6.0.1,545c7945-6f55-4043-9ec7-14d60893e659,O9a6rkzrnqMp2GzHZATXU0mnzQSe/ld6dfkvtmASCBo=,1.1427994206991E+020,262,1,T-Mobile,222,1,TIM,98.6,3042,495.2261306533,46.3451033,11.2422724,192.168.1.2,188.218.120.94,54.216.74.160,0,19,35029,3884,6,0,-101,-,-,-,-,-,-,-
2016-12-26 04:22:29,Sony,D5803,6.0.1,545c7945-6f55-4043-9ec7-14d60893e659,O9a6rkzrnqMp2GzHZATXU0mnzQSe/ld6dfkvtmASCBo=,1.1427994206991E+020,262,1,T-Mobile,222,1,TIM,,,,46.345103,11.2422682,-,-,,0,35,35029,19551,11,0,-97,-,-,-,-,-,-,-
2016-12-26 00:36:05,Sony,D5803,6.0.1,545c7945-6f55-4043-9ec7-14d60893e659,O9a6rkzrnqMp2GzHZATXU0mnzQSe/ld6dfkvtmASCBo=,1.1427994206991E+020,262,1,T-Mobile,222,1,TIM,,,,46.3451039,11.2422677,-,-,,0,35,35029,3724,11,0,-97,-,-,-,-,-,-,-
2016-12-26 03:46:34,Apple,iPhone7.2,-,05640496F6714C57A9C4A9C76C9218ED,-,1.1427994206991E+020,262,2,Vodafone,262,2,Vodafone,102,5573,2109,51.9723925274,10.56365842,100.75.147.172,109.47.3.236,54.216.74.160,8,-,null,null,-,-,-,-,-,-,-,-,-,-
2016-12-25 22:32:23,Sony,D5803,6.0.1,545c7945-6f55-4043-9ec7-14d60893e659,O9a6rkzrnqMp2GzHZATXU0mnzQSe/ld6dfkvtmASCBo=,1.1427994206991E+020,262,1,T-Mobile,222,1,TIM,104.9,67.5,495.2261306533,46.345102,11.242268,192.168.1.2,188.218.120.94,54.78.38.85,0,35,35029,19551,11,0,-97,-,-,-,-,-,-,-
2016-12-25 21:15:52,Sony,D5803,6.0.1,545c7945-6f55-4043-9ec7-14d60893e659,O9a6rkzrnqMp2GzHZATXU0mnzQSe/ld6dfkvtmASCBo=,1.1427994206991E+020,262,1,T-Mobile,222,1,TIM,100,51.75,431.9095477387,46.3451039,11.2422677,192.168.1.2,188.218.120.94,54.216.74.160,0,35,35029,19551,11,0,-97,-,-,-,-,-,-,-
2016-12-25 20:01:23,Sony,D5803,6.0.1,545c7945-6f55-4043-9ec7-14d60893e659,O9a6rkzrnqMp2GzHZATXU0mnzQSe/ld6dfkvtmASCBo=,1.1427994206991E+020,262,1,T-Mobile,222,1,TIM,143.2,65.25,495.2261306533,46.3451042,11.2422707,192.168.1.2,188.218.120.94,54.216.74.160,0,0,61320,86514833,-,-,-,0,-113,-,-,-,-,-
2016-12-25 19:01:15,Sony,D5803,6.0.1,545c7945-6f55-4043-9ec7-14d60893e659,O9a6rkzrnqMp2GzHZATXU0mnzQSe/ld6dfkvtmASCBo=,1.1427994206991E+020,262,1,T-Mobile,222,1,TIM,98.5,22.5,492.9648241206,46.345103,11.2422684,192.168.1.2,188.218.120.94,54.216.74.160,0,0,61320,86510982,-,-,-,0,-113,-,-,-,-,-
2016-12-25 18:03:08,Sony,D5803,6.0.1,545c7945-6f55-4043-9ec7-14d60893e659,O9a6rkzrnqMp2GzHZATXU0mnzQSe/ld6dfkvtmASCBo=,1.1427994206991E+020,262,1,T-Mobile,222,1,TIM,,,,-,-,-,-,,0,0,61320,86518540,-,-,-,0,-113,-,-,-,-,-
2016-12-25 17:01:12,Sony,D5803,6.0.1,545c7945-6f55-4043-9ec7-14d60893e659,O9a6rkzrnqMp2GzHZATXU0mnzQSe/ld6dfkvtmASCBo=,1.1427994206991E+020,262,1,T-Mobile,222,1,TIM,98.9,29.25,483.91959799,46.3451042,11.2422707,192.168.1.2,188.218.120.94,54.216.74.160,0,0,61320,86510982,-,-,-,0,-113,-,-,-,-,-
2016-12-25 15:53:18,Sony,D5803,6.0.1,545c7945-6f55-4043-9ec7-14d60893e659,O9a6rkzrnqMp2GzHZATXU0mnzQSe/ld6dfkvtmASCBo=,1.1427994206991E+020,262,1,T-Mobile,222,10,Vodafone,101.6,146.25,495.2261306533,46.3451047,11.2422686,192.168.1.2,188.218.120.94,54.216.74.160,0,0,25059,9943791,-,-,-,0,-113,-,-,-,-,-
2016-12-25 14:53:32,Sony,D5803,6.0.1,545c7945-6f55-4043-9ec7-14d60893e659,-,1.1427994206991E+020,-,-,-,-,-,-,110,168.75,257.7889447236,46.345103,11.2422677,192.168.1.2,188.218.120.94,54.216.74.160,0,0,,,-,-,-,-,-,-,-,-,-,-
2016-12-25 13:38:29,Sony,D5803,6.0.1,545c7945-6f55-4043-9ec7-14d60893e659,O9a6rkzrnqMp2GzHZATXU0mnzQSe/ld6dfkvtmASCBo=,1.1427994206991E+020,262,1,T-Mobile,222,1,TIM,116.4,130.5,293.9698492462,46.3451027,11.242268,192.168.1.2,188.218.120.94,54.216.74.160,0,0,61320,86518972,-,-,-,0,-113,-,-,-,-,-
2016-12-25 12:37:57,Sony,D5803,6.0.1,545c7945-6f55-4043-9ec7-14d60893e659,O9a6rkzrnqMp2GzHZATXU0mnzQSe/ld6dfkvtmASCBo=,1.1427994206991E+020,262,1,T-Mobile,222,1,TIM,99.4,177.75,481.6582914573,46.345102,11.2422693,192.168.1.2,188.218.120.94,54.216.74.160,0,0,61320,86507775,-,-,-,0,-113,-,-,-,-,-
2016-12-25 11:13:56,Sony,D5803,6.0.1,545c7945-6f55-4043-9ec7-14d60893e659,O9a6rkzrnqMp2GzHZATXU0mnzQSe/ld6dfkvtmASCBo=,1.1427994206991E+020,262,1,T-Mobile,222,1,TIM,98.1,146.25,495.2261306533,46.3451045,11.2422709,192.168.1.2,188.218.120.94,54.216.74.160,0,0,61320,86510982,-,-,-,0,-113,-,-,-,-,-
2016-12-25 10:13:26,Sony,D5803,6.0.1,545c7945-6f55-4043-9ec7-14d60893e659,O9a6rkzrnqMp2GzHZATXU0mnzQSe/ld6dfkvtmASCBo=,1.1427994206991E+020,262,1,T-Mobile,222,10,Vodafone,112.5,47.25,373.1155778894,46.345103,11.2422677,192.168.1.2,188.218.121.99,54.216.74.160,0,6,20086,21082,2,0,-103,-,-,-,-,-,-,-
2016-12-25 09:13:35,Sony,D5803,6.0.1,545c7945-6f55-4043-9ec7-14d60893e659,O9a6rkzrnqMp2GzHZATXU0mnzQSe/ld6dfkvtmASCBo=,1.1427994206991E+020,262,1,T-Mobile,222,1,TIM,129.3,51.75,321.1055276382,46.3451031,11.2422686,192.168.1.2,188.218.121.99,54.78.38.85,0,0,61320,86510982,-,-,-,0,-113,-,-,-,-,-
2016-12-25 08:13:50,Sony,D5803,6.0.1,545c7945-6f55-4043-9ec7-14d60893e659,O9a6rkzrnqMp2GzHZATXU0mnzQSe/ld6dfkvtmASCBo=,1.1427994206991E+020,262,1,T-Mobile,222,1,TIM,165.7,202.5,131.1557788945,46.3451028,11.2422683,192.168.1.2,188.218.121.99,54.216.74.160,0,0,61320,86518972,-,-,-,0,-113,-,-,-,-,-
2016-12-25 07:14:41,Sony,D5803,6.0.1,545c7945-6f55-4043-9ec7-14d60893e659,O9a6rkzrnqMp2GzHZATXU0mnzQSe/ld6dfkvtmASCBo=,1.1427994206991E+020,262,1,T-Mobile,222,1,TIM,,,,46.3451303,11.2422198,-,-,,0,0,61320,86518972,-,-,-,0,-113,-,-,-,-,-
2016-12-25 06:16:13,Sony,D5803,6.0.1,545c7945-6f55-4043-9ec7-14d60893e659,O9a6rkzrnqMp2GzHZATXU0mnzQSe/ld6dfkvtmASCBo=,1.1427994206991E+020,262,1,T-Mobile,222,1,TIM,,,,46.3451196,11.2422393,-,-,,0,0,61320,86518972,-,-,-,0,-113,-,-,-,-,-
2016-12-25 05:14:53,Sony,D5803,6.0.1,545c7945-6f55-4043-9ec7-14d60893e659,O9a6rkzrnqMp2GzHZATXU0mnzQSe/ld6dfkvtmASCBo=,1.1427994206991E+020,262,1,T-Mobile,222,1,TIM,,,,46.3451039,11.2422677,-,-,,0,0,61320,86518972,-,-,-,0,-113,-,-,-,-,-
2016-12-25 04:14:04,Sony,D5803,6.0.1,545c7945-6f55-4043-9ec7-14d60893e659,O9a6rkzrnqMp2GzHZATXU0mnzQSe/ld6dfkvtmASCBo=,1.1427994206991E+020,262,1,T-Mobile,222,1,TIM,,,,46.3451039,11.2422677,-,-,,0,0,61320,86518972,-,-,-,0,-113,-,-,-,-,-
2016-12-25 03:14:51,Sony,D5803,6.0.1,545c7945-6f55-4043-9ec7-14d60893e659,O9a6rkzrnqMp2GzHZATXU0mnzQSe/ld6dfkvtmASCBo=,1.1427994206991E+020,262,1,T-Mobile,222,1,TIM,1135.6,0,74.6231155779,46.34537037,11.2421626,-,-,54.216.74.160,0,0,61320,86518972,-,-,-,0,-113,-,-,-,-,-
2016-12-25 02:15:47,Sony,D5803,6.0.1,545c7945-6f55-4043-9ec7-14d60893e659,O9a6rkzrnqMp2GzHZATXU0mnzQSe/ld6dfkvtmASCBo=,1.1427994206991E+020,262,1,T-Mobile,222,1,TIM,,,,46.3451419,11.2422062,-,-,,0,0,61320,86518972,-,-,-,0,-113,-,-,-,-,-
2016-12-25 01:13:50,Sony,D5803,6.0.1,545c7945-6f55-4043-9ec7-14d60893e659,O9a6rkzrnqMp2GzHZATXU0mnzQSe/ld6dfkvtmASCBo=,1.1427994206991E+020,262,1,T-Mobile,222,1,TIM,,,,46.3451027,11.242268,-,-,,0,0,61320,86518972,-,-,-,0,-113,-,-,-,-,-
2016-12-25 00:13:56,Sony,D5803,6.0.1,545c7945-6f55-4043-9ec7-14d60893e659,O9a6rkzrnqMp2GzHZATXU0mnzQSe/ld6dfkvtmASCBo=,1.1427994206991E+020,262,1,T-Mobile,222,1,TIM,104.6,2857.5,397.9899497487,46.3451033,11.2422724,192.168.1.2,188.218.121.99,54.216.74.160,0,0,61320,86518972,-,-,-,0,-113,-,-,-,-,-
2016-12-24 23:13:50,Sony,D5803,6.0.1,545c7945-6f55-4043-9ec7-14d60893e659,O9a6rkzrnqMp2GzHZATXU0mnzQSe/ld6dfkvtmASCBo=,1.1427994206991E+020,262,1,T-Mobile,222,1,TIM,100.2,3525.75,402.5125628141,46.34500618,11.24221623,192.168.1.2,188.218.121.99,54.216.74.160,0,0,61320,86518972,-,-,-,0,-113,-,-,-,-,-
2016-12-24 22:13:32,Sony,D5803,6.0.1,545c7945-6f55-4043-9ec7-14d60893e659,O9a6rkzrnqMp2GzHZATXU0mnzQSe/ld6dfkvtmASCBo=,1.1427994206991E+020,262,1,T-Mobile,222,1,TIM,,,,46.3505056,11.2461233,-,-,,0,25,35029,3724,8,0,-101,-,-,-,-,-,-,-
2016-12-24 21:13:50,Sony,D5803,6.0.1,545c7945-6f55-4043-9ec7-14d60893e659,O9a6rkzrnqMp2GzHZATXU0mnzQSe/ld6dfkvtmASCBo=,1.1427994206991E+020,262,1,T-Mobile,222,1,TIM,76.4,3271.5,388.9447236181,46.328051,11.235424,192.168.1.8,95.232.110.247,54.216.74.160,0,0,61320,86514833,-,-,-,0,-113,-,-,-,-,-
2016-12-24 20:14:41,Sony,D5803,6.0.1,545c7945-6f55-4043-9ec7-14d60893e659,O9a6rkzrnqMp2GzHZATXU0mnzQSe/ld6dfkvtmASCBo=,1.1427994206991E+020,262,1,T-Mobile,222,1,TIM,93.6,5798.25,395.7286432161,46.3465887,11.2679906,192.168.1.8,95.232.110.247,54.78.38.85,0,0,61320,86510982,-,-,-,0,-113,-,-,-,-,-
2016-12-24 19:15:11,Sony,D5803,6.0.1,545c7945-6f55-4043-9ec7-14d60893e659,O9a6rkzrnqMp2GzHZATXU0mnzQSe/ld6dfkvtmASCBo=,1.1427994206991E+020,262,1,T-Mobile,222,1,TIM,,,,46.3505056,11.2461233,-,-,,0,41,35029,3724,13,0,-85,-,-,-,-,-,-,-
2016-12-24 18:14:07,Sony,D5803,6.0.1,545c7945-6f55-4043-9ec7-14d60893e659,O9a6rkzrnqMp2GzHZATXU0mnzQSe/ld6dfkvtmASCBo=,1.1427994206991E+020,262,1,T-Mobile,222,1,TIM,100.4,146.25,492.9648241206,46.345103,11.2422684,192.168.1.2,188.218.121.99,54.216.74.160,0,41,35029,3724,13,0,-97,-,-,-,-,-,-,-
2016-12-24 17:13:37,Sony,D5803,6.0.1,545c7945-6f55-4043-9ec7-14d60893e659,-,1.1427994206991E+020,-,-,-,-,-,-,,,,-,-,-,-,,0,0,-,-,-,-,-,-,-,-,-,-,-,-
2016-12-24 16:16:23,Sony,D5803,6.0.1,545c7945-6f55-4043-9ec7-14d60893e659,-,1.1427994206991E+020,-,-,-,-,-,-,,,,-,-,-,-,,0,0,-,-,-,-,-,-,-,-,-,-,-,-
2016-12-24 15:13:51,Sony,D5803,6.0.1,545c7945-6f55-4043-9ec7-14d60893e659,O9a6rkzrnqMp2GzHZATXU0mnzQSe/ld6dfkvtmASCBo=,1.1427994206991E+020,262,1,T-Mobile,222,1,TIM,,,,46.3451288,11.2422267,-,-,,0,25,35029,3724,8,0,-97,-,-,-,-,-,-,-
2016-12-24 14:17:00,Sony,D5803,6.0.1,545c7945-6f55-4043-9ec7-14d60893e659,-,1.1427994206991E+020,-,-,-,-,-,-,,,,46.3449834,11.24263,-,-,,0,41,35029,3724,13,0,-113,-,-,-,-,-,-,-
2016-12-24 13:13:59,Sony,D5803,6.0.1,545c7945-6f55-4043-9ec7-14d60893e659,O9a6rkzrnqMp2GzHZATXU0mnzQSe/ld6dfkvtmASCBo=,1.1427994206991E+020,262,1,T-Mobile,222,88,Wind,225.8,94.5,495.2261306533,46.3452056,11.2420975,192.168.1.2,188.218.121.99,54.216.74.160,0,0,24066,19363877,-,-,-,0,-113,-,-,-,-,-
2016-12-24 12:16:20,Sony,D5803,6.0.1,545c7945-6f55-4043-9ec7-14d60893e659,O9a6rkzrnqMp2GzHZATXU0mnzQSe/ld6dfkvtmASCBo=,1.1427994206991E+020,262,1,T-Mobile,222,1,TIM,101.4,139.5,490.7035175879,46.3451028,11.2422685,192.168.1.2,188.218.121.99,54.216.74.160,0,0,61320,86514833,-,-,-,0,-113,-,-,-,-,-
2016-12-24 11:14:44,Sony,D5803,6.0.1,545c7945-6f55-4043-9ec7-14d60893e659,O9a6rkzrnqMp2GzHZATXU0mnzQSe/ld6dfkvtmASCBo=,1.1427994206991E+020,262,1,T-Mobile,222,1,TIM,,,,46.345103,11.2422682,-,-,,0,19,35029,3724,6,0,-99,-,-,-,-,-,-,-
2016-12-24 10:15:34,Sony,D5803,6.0.1,545c7945-6f55-4043-9ec7-14d60893e659,O9a6rkzrnqMp2GzHZATXU0mnzQSe/ld6dfkvtmASCBo=,1.1427994206991E+020,262,1,T-Mobile,222,1,TIM,,,,46.3198757,11.2620024,-,-,,0,0,61320,86513088,-,-,-,0,-113,-,-,-,-,-
2016-12-24 08:23:22,Sony,D5803,6.0.1,545c7945-6f55-4043-9ec7-14d60893e659,O9a6rkzrnqMp2GzHZATXU0mnzQSe/ld6dfkvtmASCBo=,1.1427994206991E+020,262,1,T-Mobile,222,1,TIM,,,,46.3450484,11.2424304,-,-,,0,19,35029,3724,6,0,-97,-,-,-,-,-,-,-
2016-12-24 07:22:32,Sony,D5803,6.0.1,545c7945-6f55-4043-9ec7-14d60893e659,O9a6rkzrnqMp2GzHZATXU0mnzQSe/ld6dfkvtmASCBo=,1.1427994206991E+020,262,1,T-Mobile,222,1,TIM,103.9,2799,492.9648241206,46.3451029,11.2422715,192.168.1.2,188.218.122.39,54.216.74.160,0,0,61320,86514833,-,-,-,0,-113,-,-,-,-,-
2016-12-24 04:41:30,Sony,D5803,6.0.1,545c7945-6f55-4043-9ec7-14d60893e659,-,1.1427994206991E+020,-,-,-,-,-,-,,,,-,-,-,-,,0,0,-,-,-,-,-,-,-,-,-,-,-,-
2016-12-24 03:40:34,Sony,D5803,6.0.1,545c7945-6f55-4043-9ec7-14d60893e659,-,1.1427994206991E+020,-,-,-,-,-,-,,,,-,-,-,-,,0,0,-,-,-,-,-,-,-,-,-,-,-,-
2016-12-24 02:42:44,Sony,D5803,6.0.1,545c7945-6f55-4043-9ec7-14d60893e659,-,1.1427994206991E+020,-,-,-,-,-,-,,,,-,-,-,-,,0,0,-,-,-,-,-,-,-,-,-,-,-,-
2016-12-24 01:42:29,Sony,D5803,6.0.1,545c7945-6f55-4043-9ec7-14d60893e659,-,1.1427994206991E+020,-,-,-,-,-,-,,,,-,-,-,-,,0,0,-,-,-,-,-,-,-,-,-,-,-,-
2016-12-24 00:42:30,Sony,D5803,6.0.1,545c7945-6f55-4043-9ec7-14d60893e659,-,1.1427994206991E+020,-,-,-,-,-,-,,,,-,-,-,-,,0,0,-,-,-,-,-,-,-,-,-,-,-,-
2016-12-23 23:40:33,Sony,D5803,6.0.1,545c7945-6f55-4043-9ec7-14d60893e659,-,1.1427994206991E+020,-,-,-,-,-,-,,,,-,-,-,-,,0,0,-,-,-,-,-,-,-,-,-,-,-,-
2016-12-23 20:06:17,Sony,D5803,6.0.1,545c7945-6f55-4043-9ec7-14d60893e659,O9a6rkzrnqMp2GzHZATXU0mnzQSe/ld6dfkvtmASCBo=,1.1427994206991E+020,262,1,T-Mobile,222,1,TIM,,,,46.3413202,11.2396975,-,-,,0,0,61320,86514833,-,-,-,0,-113,-,-,-,-,-
2016-12-23 18:20:08,Sony,D5803,6.0.1,545c7945-6f55-4043-9ec7-14d60893e659,O9a6rkzrnqMp2GzHZATXU0mnzQSe/ld6dfkvtmASCBo=,1.1427994206991E+020,262,1,T-Mobile,222,1,TIM,137.6,186.75,495.2261306533,46.3451034,11.2422685,192.168.1.4,188.218.122.39,54.216.74.160,0,0,61320,86514833,-,-,-,0,-113,-,-,-,-,-
2016-12-23 16:20:40,Sony,D5803,6.0.1,545c7945-6f55-4043-9ec7-14d60893e659,O9a6rkzrnqMp2GzHZATXU0mnzQSe/ld6dfkvtmASCBo=,1.1427994206991E+020,262,1,T-Mobile,222,1,TIM,,22.5,0,46.345103,11.2422676,192.168.1.4,188.218.122.39,54.216.74.160,0,0,61320,86518972,-,-,-,0,-113,-,-,-,-,-
2016-12-23 15:21:26,Sony,D5803,6.0.1,545c7945-6f55-4043-9ec7-14d60893e659,O9a6rkzrnqMp2GzHZATXU0mnzQSe/ld6dfkvtmASCBo=,1.1427994206991E+020,262,1,T-Mobile,222,1,TIM,146.6,157.5,495.2261306533,46.345103,11.2422684,192.168.1.4,188.218.122.39,54.216.74.160,0,35,35029,3724,11,0,-99,-,-,-,-,-,-,-
2016-12-23 14:14:50,Sony,D5803,6.0.1,545c7945-6f55-4043-9ec7-14d60893e659,O9a6rkzrnqMp2GzHZATXU0mnzQSe/ld6dfkvtmASCBo=,1.1427994206991E+020,262,1,T-Mobile,222,88,Wind,,,,46.3501717,11.3718189,-,-,,0,0,24066,19365483,-,-,-,0,-113,-,-,-,-,-
2016-12-23 13:14:51,Sony,D5803,6.0.1,545c7945-6f55-4043-9ec7-14d60893e659,O9a6rkzrnqMp2GzHZATXU0mnzQSe/ld6dfkvtmASCBo=,1.1427994206991E+020,262,1,T-Mobile,222,1,TIM,100,177.75,15.8291457286,46.3452703,11.24208119,192.168.1.4,188.218.122.39,54.216.74.160,0,25,35029,3724,8,0,-99,-,-,-,-,-,-,-
2016-12-23 12:06:39,Sony,D5803,6.0.1,545c7945-6f55-4043-9ec7-14d60893e659,O9a6rkzrnqMp2GzHZATXU0mnzQSe/ld6dfkvtmASCBo=,1.1427994206991E+020,262,1,T-Mobile,222,1,TIM,98.2,132.75,63.3165829146,46.3450765,11.2422169,192.168.1.4,188.218.122.39,54.78.38.85,0,0,61320,86514833,-,-,-,0,-113,-,-,-,-,-
2016-12-23 11:07:02,Sony,D5803,6.0.1,545c7945-6f55-4043-9ec7-14d60893e659,O9a6rkzrnqMp2GzHZATXU0mnzQSe/ld6dfkvtmASCBo=,1.1427994206991E+020,262,1,T-Mobile,222,1,TIM,229.3333333333,45,492.9648241206,46.345103,11.2422679,192.168.1.4,188.218.122.39,54.216.74.160,0,0,61320,86509470,-,-,-,0,-113,-,-,-,-,-
2016-12-23 10:06:44,Sony,D5803,6.0.1,545c7945-6f55-4043-9ec7-14d60893e659,O9a6rkzrnqMp2GzHZATXU0mnzQSe/ld6dfkvtmASCBo=,1.1427994206991E+020,262,1,T-Mobile,222,1,TIM,101.4,207,492.9648241206,46.3455853,11.24192652,192.168.1.4,188.218.122.39,54.216.74.160,0,0,61320,86518972,-,-,-,0,-113,-,-,-,-,-
2016-12-23 09:01:40,Sony,D5803,6.0.1,545c7945-6f55-4043-9ec7-14d60893e659,O9a6rkzrnqMp2GzHZATXU0mnzQSe/ld6dfkvtmASCBo=,1.1427994206991E+020,262,1,T-Mobile,222,1,TIM,106.8,148.5,479.3969849246,46.3451033,11.2422724,192.168.1.4,188.218.122.39,54.216.74.160,0,35,35029,3724,11,0,-95,-,-,-,-,-,-,-
2016-12-23 05:27:55,Sony,D5803,6.0.1,545c7945-6f55-4043-9ec7-14d60893e659,-,1.1427994206991E+020,-,-,-,-,-,-,,,,-,-,-,-,,0,0,-,-,-,-,-,-,-,-,-,-,-,-
2016-12-23 04:24:16,Sony,D5803,6.0.1,545c7945-6f55-4043-9ec7-14d60893e659,-,1.1427994206991E+020,-,-,-,-,-,-,,,,-,-,-,-,,0,0,-,-,-,-,-,-,-,-,-,-,-,-
2016-12-23 03:24:14,Sony,D5803,6.0.1,545c7945-6f55-4043-9ec7-14d60893e659,-,1.1427994206991E+020,-,-,-,-,-,-,,,,-,-,-,-,,0,0,-,-,-,-,-,-,-,-,-,-,-,-
2016-12-23 02:25:30,Sony,D5803,6.0.1,545c7945-6f55-4043-9ec7-14d60893e659,-,1.1427994206991E+020,-,-,-,-,-,-,,,,-,-,-,-,,0,0,-,-,-,-,-,-,-,-,-,-,-,-
2016-12-23 01:24:15,Sony,D5803,6.0.1,545c7945-6f55-4043-9ec7-14d60893e659,-,1.1427994206991E+020,-,-,-,-,-,-,,,,-,-,-,-,,0,0,-,-,-,-,-,-,-,-,-,-,-,-
2016-12-23 00:24:18,Sony,D5803,6.0.1,545c7945-6f55-4043-9ec7-14d60893e659,-,1.1427994206991E+020,-,-,-,-,-,-,,,,-,-,-,-,,0,0,-,-,-,-,-,-,-,-,-,-,-,-
2016-12-22 23:26:36,Sony,D5803,6.0.1,545c7945-6f55-4043-9ec7-14d60893e659,-,1.1427994206991E+020,-,-,-,-,-,-,,,,-,-,-,-,,0,0,-,-,-,-,-,-,-,-,-,-,-,-
2016-12-22 22:24:36,Sony,D5803,6.0.1,545c7945-6f55-4043-9ec7-14d60893e659,-,1.1427994206991E+020,-,-,-,-,-,-,,,,-,-,-,-,,0,0,-,-,-,-,-,-,-,-,-,-,-,-
2016-12-22 21:06:22,Sony,D5803,6.0.1,545c7945-6f55-4043-9ec7-14d60893e659,O9a6rkzrnqMp2GzHZATXU0mnzQSe/ld6dfkvtmASCBo=,1.1427994206991E+020,262,1,T-Mobile,222,1,TIM,110.6666666667,195.75,350.5025125628,46.3451039,11.2422677,192.168.1.5,188.218.122.39,54.216.74.160,0,41,35029,3724,13,0,-91,-,-,-,-,-,-,-
2016-12-22 19:43:31,Sony,D5803,6.0.1,545c7945-6f55-4043-9ec7-14d60893e659,O9a6rkzrnqMp2GzHZATXU0mnzQSe/ld6dfkvtmASCBo=,1.1427994206991E+020,262,1,T-Mobile,222,1,TIM,115.6,148.5,314.3216080402,46.3451033,11.2422724,192.168.1.5,188.218.122.39,54.216.74.160,0,0,61320,86518972,-,-,-,0,-113,-,-,-,-,-
2016-12-22 19:07:32,Apple,iPhone7.2,-,05640496F6714C57A9C4A9C76C9218ED,-,1.1427994206991E+020,262,2,Vodafone,262,2,Vodafone,64,10284,839,51.8066888815,10.4570205789,192.168.0.100,79.193.2.207,54.216.74.160,0,-,null,null,-,-,-,-,-,-,-,-,-,-
2016-12-22 18:21:19,Sony,D5803,6.0.1,545c7945-6f55-4043-9ec7-14d60893e659,O9a6rkzrnqMp2GzHZATXU0mnzQSe/ld6dfkvtmASCBo=,1.1427994206991E+020,262,1,T-Mobile,222,1,TIM,96.8,175.5,486.1809045226,46.3451037,11.2422672,192.168.1.5,188.218.122.39,54.216.74.160,0,0,61320,86510982,-,-,-,0,-113,-,-,-,-,-
2016-12-22 16:38:31,Sony,D5803,6.0.1,545c7945-6f55-4043-9ec7-14d60893e659,O9a6rkzrnqMp2GzHZATXU0mnzQSe/ld6dfkvtmASCBo=,1.1427994206991E+020,262,1,T-Mobile,222,1,TIM,105.3,177.75,278.1407035176,46.3451033,11.2422671,192.168.1.5,188.218.122.39,54.216.74.160,0,0,61320,86518972,-,-,-,0,-113,-,-,-,-,-
2016-12-22 15:57:57,Apple,iPhone7.2,-,05640496F6714C57A9C4A9C76C9218ED,-,1.1427994206991E+020,262,2,Vodafone,262,2,Vodafone,127,16231,2428,51.806683098,10.5309771281,100.71.232.73,90.186.0.221,54.216.74.160,8,-,null,null,-,-,-,-,-,-,-,-,-,-
2016-12-22 15:39:18,Apple,iPhone7.2,-,05640496F6714C57A9C4A9C76C9218ED,-,1.1427994206991E+020,262,2,Vodafone,262,2,Vodafone,247,76,41,51.9011642877,10.6901519001,100.71.232.73,90.186.0.221,54.78.38.85,2,-,null,null,-,-,-,-,-,-,-,-,-,-
2016-12-22 15:38:45,Apple,iPhone7.2,-,05640496F6714C57A9C4A9C76C9218ED,-,1.1427994206991E+020,262,2,Vodafone,262,2,Vodafone,,0,0,51.8922165223,10.7097513042,,,,2,-,null,null,-,-,-,-,-,-,-,-,-,-
2016-12-22 15:38:22,Apple,iPhone7.2,-,05640496F6714C57A9C4A9C76C9218ED,-,1.1427994206991E+020,262,2,Vodafone,262,2,Vodafone,,0,0,51.8875825871,10.7147817873,,,,2,-,null,null,-,-,-,-,-,-,-,-,-,-
2016-12-22 15:38:14,Sony,D5803,6.0.1,545c7945-6f55-4043-9ec7-14d60893e659,O9a6rkzrnqMp2GzHZATXU0mnzQSe/ld6dfkvtmASCBo=,1.1427994206991E+020,262,1,T-Mobile,222,1,TIM,103.3,153,160.5527638191,46.3451036,11.2422669,192.168.1.5,188.218.122.39,54.216.74.160,0,35,35029,3724,11,0,-105,-,-,-,-,-,-,-
2016-12-22 14:04:38,Sony,D5803,6.0.1,545c7945-6f55-4043-9ec7-14d60893e659,O9a6rkzrnqMp2GzHZATXU0mnzQSe/ld6dfkvtmASCBo=,1.1427994206991E+020,262,1,T-Mobile,222,88,Wind,,,,46.34532456,11.24240252,-,-,,0,0,24066,19365505,-,-,-,0,-113,-,-,-,-,-
2016-12-22 15:27:11,Apple,iPhone7.2,-,05640496F6714C57A9C4A9C76C9218ED,-,1.1427994206991E+020,262,2,Vodafone,262,2,Vodafone,86,11369,1805,51.8119450473,10.9417135175,100.77.193.61,2.201.3.173,54.216.74.160,8,-,null,null,-,-,-,-,-,-,-,-,-,-
2016-12-22 15:14:02,Apple,iPhone7.2,-,05640496F6714C57A9C4A9C76C9218ED,-,1.1427994206991E+020,262,2,Vodafone,262,2,Vodafone,272,56,0,51.8004972954,11.2363290321,100.77.193.61,2.201.3.173,54.216.74.160,2,-,null,null,-,-,-,-,-,-,-,-,-,-
2016-12-22 12:36:19,Apple,iPhone7.2,-,05640496F6714C57A9C4A9C76C9218ED,-,1.1427994206991E+020,262,2,Vodafone,262,2,Vodafone,259,147,80,50.3366932506,11.787479315,100.77.193.61,2.201.3.173,54.78.38.85,2,-,null,null,-,-,-,-,-,-,-,-,-,-
2016-12-22 13:31:39,samsung,SM-G920F,6.0.1,84884dd4-59f6-4656-9949-249df8f4bc67,HqZ8qNQO0Uyb4JGeFXR2nBHls/mHNaLBhpFfn4nH/wE=,1.1427994206991E+020,268,1,Vodafone,262,2,Vodafone,36.2,12606.65,46902.2550251256,-,-,192.168.1.106,141.84.69.88,54.78.38.85,0,100,953,246250393,-,-,-,31,-51,-,-,-,-,-
2016-12-22 13:01:41,samsung,SM-G920F,6.0.1,84884dd4-59f6-4656-9949-249df8f4bc67,HqZ8qNQO0Uyb4JGeFXR2nBHls/mHNaLBhpFfn4nH/wE=,1.1427994206991E+020,268,1,Vodafone,262,2,Vodafone,33.9,18901.9375,78829.3467336684,-,-,192.168.1.106,141.84.69.88,54.216.74.160,0,100,48030,21250817,-,-,-,-,-,97,118,2,-13,1
2016-12-22 13:04:48,Sony,D5803,6.0.1,545c7945-6f55-4043-9ec7-14d60893e659,O9a6rkzrnqMp2GzHZATXU0mnzQSe/ld6dfkvtmASCBo=,1.1427994206991E+020,262,1,T-Mobile,222,88,Wind,99.6,139.5,492.9648241206,46.3451033,11.2422671,192.168.1.5,188.218.122.39,54.216.74.160,0,0,24066,19363877,-,-,-,0,-113,-,-,-,-,-
2016-12-22 12:36:19,Apple,iPhone7.2,-,05640496F6714C57A9C4A9C76C9218ED,-,1.1427994206991E+020,262,2,Vodafone,262,2,Vodafone,259,147,80,50.3366932506,11.787479315,100.77.193.61,2.201.3.173,54.78.38.85,2,-,null,null,-,-,-,-,-,-,-,-,-,-
2016-12-22 12:31:40,samsung,SM-G920F,6.0.1,84884dd4-59f6-4656-9949-249df8f4bc67,HqZ8qNQO0Uyb4JGeFXR2nBHls/mHNaLBhpFfn4nH/wE=,1.1427994206991E+020,268,1,Vodafone,262,2,Vodafone,43.1,9945.95,53154.4676507538,-,-,192.168.1.106,141.84.69.88,54.216.74.160,0,100,48030,21250817,-,-,-,-,-,97,111,2,-9,-1
2016-12-22 11:56:29,Sony,D5803,6.0.1,545c7945-6f55-4043-9ec7-14d60893e659,O9a6rkzrnqMp2GzHZATXU0mnzQSe/ld6dfkvtmASCBo=,1.1427994206991E+020,262,1,T-Mobile,222,1,TIM,99.7,189,492.9648241206,46.3450858,11.2422209,192.168.1.5,188.218.122.39,54.216.74.160,0,0,61320,86510982,-,-,-,0,-113,-,-,-,-,-
2016-12-22 10:56:54,Sony,D5803,6.0.1,545c7945-6f55-4043-9ec7-14d60893e659,O9a6rkzrnqMp2GzHZATXU0mnzQSe/ld6dfkvtmASCBo=,1.1427994206991E+020,262,1,T-Mobile,222,1,TIM,139.1,157.5,495.2261306533,46.3451033,11.2422672,192.168.1.5,188.218.122.39,54.78.38.85,0,0,61320,86518972,-,-,-,0,-113,-,-,-,-,-
2016-12-22 09:28:33,Sony,D5803,6.0.1,545c7945-6f55-4043-9ec7-14d60893e659,O9a6rkzrnqMp2GzHZATXU0mnzQSe/ld6dfkvtmASCBo=,1.1427994206991E+020,262,1,T-Mobile,222,1,TIM,,,,46.3379704,11.2478377,-,-,,0,0,61320,86510982,-,-,-,0,-113,-,-,-,-,-
2016-12-22 08:38:48,Sony,D5803,6.0.1,545c7945-6f55-4043-9ec7-14d60893e659,O9a6rkzrnqMp2GzHZATXU0mnzQSe/ld6dfkvtmASCBo=,1.1427994206991E+020,262,1,T-Mobile,222,1,TIM,,,,46.3451036,11.2422672,-,-,,0,0,61320,86518972,-,-,-,0,-113,-,-,-,-,-
2016-12-22 07:26:20,Sony,D5803,6.0.1,545c7945-6f55-4043-9ec7-14d60893e659,O9a6rkzrnqMp2GzHZATXU0mnzQSe/ld6dfkvtmASCBo=,1.1427994206991E+020,262,1,T-Mobile,222,1,TIM,,,,46.3451036,11.2422672,-,-,,0,0,61320,86518972,-,-,-,0,-113,-,-,-,-,-
2016-12-22 06:22:37,Sony,D5803,6.0.1,545c7945-6f55-4043-9ec7-14d60893e659,O9a6rkzrnqMp2GzHZATXU0mnzQSe/ld6dfkvtmASCBo=,1.1427994206991E+020,262,1,T-Mobile,222,1,TIM,,,,46.3451045,11.2422676,-,-,,0,0,61320,86518972,-,-,-,0,-113,-,-,-,-,-
2016-12-22 04:19:29,Sony,D5803,6.0.1,545c7945-6f55-4043-9ec7-14d60893e659,O9a6rkzrnqMp2GzHZATXU0mnzQSe/ld6dfkvtmASCBo=,1.1427994206991E+020,262,1,T-Mobile,222,1,TIM,,,,46.3451053,11.2422675,-,-,,0,0,61320,86518972,-,-,-,0,-113,-,-,-,-,-
2016-12-22 02:13:45,Sony,D5803,6.0.1,545c7945-6f55-4043-9ec7-14d60893e659,O9a6rkzrnqMp2GzHZATXU0mnzQSe/ld6dfkvtmASCBo=,1.1427994206991E+020,262,1,T-Mobile,222,1,TIM,,,,46.3465887,11.2679906,-,-,,0,0,61320,86518972,-,-,-,0,-113,-,-,-,-,-
2016-12-22 01:08:25,Sony,D5803,6.0.1,545c7945-6f55-4043-9ec7-14d60893e659,O9a6rkzrnqMp2GzHZATXU0mnzQSe/ld6dfkvtmASCBo=,1.1427994206991E+020,262,1,T-Mobile,222,1,TIM,,,,46.3465887,11.2679906,-,-,,0,0,61320,86518972,-,-,-,0,-113,-,-,-,-,-
2016-12-22 00:08:24,Sony,D5803,6.0.1,545c7945-6f55-4043-9ec7-14d60893e659,O9a6rkzrnqMp2GzHZATXU0mnzQSe/ld6dfkvtmASCBo=,1.1427994206991E+020,262,1,T-Mobile,222,1,TIM,,,,46.3465887,11.2679906,-,-,,0,0,61320,86518972,-,-,-,0,-113,-,-,-,-,-
2016-12-21 23:08:02,Sony,D5803,6.0.1,545c7945-6f55-4043-9ec7-14d60893e659,O9a6rkzrnqMp2GzHZATXU0mnzQSe/ld6dfkvtmASCBo=,1.1427994206991E+020,262,1,T-Mobile,222,1,TIM,,,,46.3465887,11.2679906,-,-,,0,0,61320,86518972,-,-,-,0,-113,-,-,-,-,-
2016-12-21 21:37:45,Sony,D5803,6.0.1,545c7945-6f55-4043-9ec7-14d60893e659,O9a6rkzrnqMp2GzHZATXU0mnzQSe/ld6dfkvtmASCBo=,1.1427994206991E+020,262,1,T-Mobile,222,1,TIM,,,,46.3465887,11.2679906,-,-,,0,0,61320,86518972,-,-,-,0,-113,-,-,-,-,-
2016-12-21 20:35:08,Sony,D5803,6.0.1,545c7945-6f55-4043-9ec7-14d60893e659,O9a6rkzrnqMp2GzHZATXU0mnzQSe/ld6dfkvtmASCBo=,1.1427994206991E+020,262,1,T-Mobile,222,1,TIM,,,,46.3491115,11.2456651,-,-,,0,0,61320,86518972,-,-,-,0,-113,-,-,-,-,-
2016-12-22 04:49:12,samsung,SM-G920F,6.0.1,84884dd4-59f6-4656-9949-249df8f4bc67,HqZ8qNQO0Uyb4JGeFXR2nBHls/mHNaLBhpFfn4nH/wE=,1.1427994206991E+020,268,1,Vodafone,262,2,Vodafone,33.8,27554.725,75715.409861809,-,-,192.168.1.106,141.84.69.88,54.216.74.160,0,100,48030,21250817,-,-,-,-,-,97,112,2,-9,1
2016-12-22 04:20:07,samsung,SM-G920F,6.0.1,84884dd4-59f6-4656-9949-249df8f4bc67,HqZ8qNQO0Uyb4JGeFXR2nBHls/mHNaLBhpFfn4nH/wE=,1.1427994206991E+020,268,1,Vodafone,262,2,Vodafone,35.4,22342.1875,64509.4880653266,-,-,192.168.1.106,141.84.69.88,54.216.74.160,0,100,48030,21250817,-,-,-,-,-,97,112,2,-10,2
2016-12-21 23:20:17,Apple,iPhone7.2,-,05640496F6714C57A9C4A9C76C9218ED,-,1.1427994206991E+020,262,2,Vodafone,262,2,Vodafone,71,15124,3696,48.2522937656,11.6500033625,192.168.1.6,77.47.113.10,54.216.74.160,0,-,null,null,-,-,-,-,-,-,-,-,-,-
2016-12-21 19:33:45,Sony,D5803,6.0.1,545c7945-6f55-4043-9ec7-14d60893e659,O9a6rkzrnqMp2GzHZATXU0mnzQSe/ld6dfkvtmASCBo=,1.1427994206991E+020,262,1,T-Mobile,222,1,TIM,,0,0,46.3451045,11.2422673,-,-,54.216.74.160,0,29,35029,19551,9,0,-101,-,-,-,-,-,-,-
2016-12-21 18:11:00,Sony,D5803,6.0.1,545c7945-6f55-4043-9ec7-14d60893e659,-,1.1427994206991E+020,-,-,-,-,-,-,,,,46.3451043,11.2422714,-,-,,0,0,20086,24003,-,-,-,-,-,-,-,-,-,-
2016-12-21 17:11:28,Sony,D5803,6.0.1,545c7945-6f55-4043-9ec7-14d60893e659,O9a6rkzrnqMp2GzHZATXU0mnzQSe/ld6dfkvtmASCBo=,1.1427994206991E+020,262,1,T-Mobile,222,1,TIM,,,,-,-,-,-,,0,45,35029,3724,14,0,-99,-,-,-,-,-,-,-
2016-12-21 16:12:45,Sony,D5803,6.0.1,545c7945-6f55-4043-9ec7-14d60893e659,-,1.1427994206991E+020,-,-,-,-,-,-,,,,-,-,-,-,,0,0,-,-,-,-,-,-,-,-,-,-,-,-
2016-12-21 14:15:57,Sony,D5803,6.0.1,545c7945-6f55-4043-9ec7-14d60893e659,-,1.1427994206991E+020,-,-,-,-,-,-,,,,-,-,-,-,,0,0,-,-,-,-,-,-,-,-,-,-,-,-
2016-12-21 13:15:31,Sony,D5803,6.0.1,545c7945-6f55-4043-9ec7-14d60893e659,-,1.1427994206991E+020,-,-,-,-,-,-,,,,-,-,-,-,,0,0,-,-,-,-,-,-,-,-,-,-,-,-
2016-12-21 12:17:48,Sony,D5803,6.0.1,545c7945-6f55-4043-9ec7-14d60893e659,-,1.1427994206991E+020,-,-,-,-,-,-,,,,-,-,-,-,,0,0,-,-,-,-,-,-,-,-,-,-,-,-
2016-12-21 11:15:11,Sony,D5803,6.0.1,545c7945-6f55-4043-9ec7-14d60893e659,O9a6rkzrnqMp2GzHZATXU0mnzQSe/ld6dfkvtmASCBo=,1.1427994206991E+020,262,1,T-Mobile,222,88,Wind,,,,-,-,-,-,,0,0,24066,19334021,-,-,-,0,-113,-,-,-,-,-
2016-12-21 18:34:43,Apple,iPhone7.2,-,05640496F6714C57A9C4A9C76C9218ED,-,1.1427994206991E+020,262,2,Vodafone,262,2,Vodafone,57,4432,2703,48.2522976213,11.6500063799,192.168.1.6,77.47.113.10,54.216.74.160,0,-,null,null,-,-,-,-,-,-,-,-,-,-
2016-12-21 13:06:38,samsung,SM-G920F,6.0.1,84884dd4-59f6-4656-9949-249df8f4bc67,HqZ8qNQO0Uyb4JGeFXR2nBHls/mHNaLBhpFfn4nH/wE=,1.1427994206991E+020,268,1,Vodafone,262,2,Vodafone,35,23853.6125,33560.4585427136,-,-,192.168.1.106,141.84.69.88,54.216.74.160,0,29,893,30112,9,99,-51,-,-,-,-,-,-,-
2016-12-21 10:14:23,Sony,D5803,6.0.1,545c7945-6f55-4043-9ec7-14d60893e659,O9a6rkzrnqMp2GzHZATXU0mnzQSe/ld6dfkvtmASCBo=,1.1427994206991E+020,262,1,T-Mobile,222,1,TIM,108.9,4391.2,1512.3618090452,46.5143795,11.4746265,10.0.0.108,80.187.100.193,54.216.74.160,0,32,61320,86514849,-,-,-,10,-93,-,-,-,-,-
2016-12-21 10:08:50,Sony,D5803,6.0.1,545c7945-6f55-4043-9ec7-14d60893e659,O9a6rkzrnqMp2GzHZATXU0mnzQSe/ld6dfkvtmASCBo=,1.1427994206991E+020,262,1,T-Mobile,222,1,TIM,148.8,1575.853125,1836.0756909548,46.5832078,11.52437745,129.187.212.126,129.187.212.126,54.216.74.160,0,9,61320,20614,-,-,-,3,-107,-,-,-,-,-
2016-12-21 09:24:44,Sony,D5803,6.0.1,545c7945-6f55-4043-9ec7-14d60893e659,O9a6rkzrnqMp2GzHZATXU0mnzQSe/ld6dfkvtmASCBo=,1.1427994206991E+020,262,1,T-Mobile,222,1,TIM,239.3333333333,969.44375,1528.3040201005,46.8668178,11.4879022,129.187.212.126,129.187.212.126,54.216.74.160,0,6,61320,86515180,-,-,-,2,-109,-,-,-,-,-
2016-12-21 09:14:06,Sony,D5803,6.0.1,545c7945-6f55-4043-9ec7-14d60893e659,O9a6rkzrnqMp2GzHZATXU0mnzQSe/ld6dfkvtmASCBo=,1.1427994206991E+020,262,1,T-Mobile,222,1,TIM,90.3,5753.7125,1395.175879397,46.95765093,11.46023819,10.0.0.108,80.187.100.193,54.216.74.160,0,0,61320,86507664,-,-,-,0,-113,-,-,-,-,-
2016-12-21 08:39:46,Sony,D5803,6.0.1,545c7945-6f55-4043-9ec7-14d60893e659,O9a6rkzrnqMp2GzHZATXU0mnzQSe/ld6dfkvtmASCBo=,1.1427994206991E+020,262,1,T-Mobile,232,3,T-Mobile AT,130.7,3326.125,2979.9167713568,47.26489621,11.26129302,129.187.100.134,129.187.100.134,54.216.74.160,0,6,13001,2345540,-,-,-,2,-109,-,-,-,-,-
2016-12-21 06:24:23,Apple,iPhone7.2,-,05640496F6714C57A9C4A9C76C9218ED,-,1.1427994206991E+020,262,2,Vodafone,262,2,Vodafone,83,24335,3723,48.2522475813,11.6498741135,192.168.1.6,77.47.113.10,54.216.74.160,0,-,null,null,-,-,-,-,-,-,-,-,-,-
2016-12-21 05:06:09,Apple,iPhone7.2,-,05640496F6714C57A9C4A9C76C9218ED,-,1.1427994206991E+020,262,2,Vodafone,262,2,Vodafone,54,20556,3721,48.2521295641,11.6500597727,192.168.1.6,77.47.113.10,54.216.74.160,0,-,null,null,-,-,-,-,-,-,-,-,-,-
2016-12-21 03:50:24,Apple,iPhone7.2,-,05640496F6714C57A9C4A9C76C9218ED,-,1.1427994206991E+020,262,2,Vodafone,262,2,Vodafone,88,32295,3712,48.2521752036,11.6503804643,192.168.1.6,77.47.113.10,54.216.74.160,0,-,null,null,-,-,-,-,-,-,-,-,-,-
2016-12-21 02:49:39,Apple,iPhone7.2,-,05640496F6714C57A9C4A9C76C9218ED,-,1.1427994206991E+020,262,2,Vodafone,262,2,Vodafone,,0,0,48.2526280359,11.6491014697,,,,0,-,null,null,-,-,-,-,-,-,-,-,-,-
2016-12-21 01:33:37,Apple,iPhone7.2,-,05640496F6714C57A9C4A9C76C9218ED,-,1.1427994206991E+020,262,2,Vodafone,262,2,Vodafone,79,32382,3723,48.2524541533,11.6498411726,192.168.1.6,77.47.113.10,54.216.74.160,0,-,null,null,-,-,-,-,-,-,-,-,-,-
2016-12-21 00:16:33,Apple,iPhone7.2,-,05640496F6714C57A9C4A9C76C9218ED,-,1.1427994206991E+020,262,2,Vodafone,262,2,Vodafone,47,20289,3424,48.2523339384,11.6497350829,192.168.1.6,77.47.113.10,54.216.74.160,0,-,null,null,-,-,-,-,-,-,-,-,-,-
2016-12-20 21:36:08,Apple,iPhone7.2,-,05640496F6714C57A9C4A9C76C9218ED,-,1.1427994206991E+020,262,2,Vodafone,262,2,Vodafone,50,11615,3660,48.252236368,11.649929282,192.168.1.6,77.47.113.10,54.216.74.160,0,-,null,null,-,-,-,-,-,-,-,-,-,-
2016-12-20 15:06:09,samsung,SM-G920F,6.0.1,84884dd4-59f6-4656-9949-249df8f4bc67,HqZ8qNQO0Uyb4JGeFXR2nBHls/mHNaLBhpFfn4nH/wE=,1.1427994206991E+020,268,1,Vodafone,262,2,Vodafone,46,5203.75,19185.1837311558,-,-,131.159.193.52,131.159.193.52,54.78.38.85,0,100,8306,246168299,-,-,-,31,-51,-,-,-,-,-
2016-12-20 14:16:08,samsung,SM-G920F,6.0.1,84884dd4-59f6-4656-9949-249df8f4bc67,HqZ8qNQO0Uyb4JGeFXR2nBHls/mHNaLBhpFfn4nH/wE=,1.1427994206991E+020,268,1,Vodafone,262,2,Vodafone,57,4488.8,22216.4934045226,-,-,131.159.193.52,131.159.193.52,54.78.38.85,0,100,8306,246168299,-,-,-,31,-51,-,-,-,-,-
2016-12-20 13:46:09,samsung,SM-G920F,6.0.1,84884dd4-59f6-4656-9949-249df8f4bc67,HqZ8qNQO0Uyb4JGeFXR2nBHls/mHNaLBhpFfn4nH/wE=,1.1427994206991E+020,268,1,Vodafone,262,2,Vodafone,49.3,13348.1875,31409.85709799,-,-,131.159.193.52,131.159.193.52,54.216.74.160,0,100,8306,246168303,-,-,-,31,-51,-,-,-,-,-
2016-12-20 12:51:09,samsung,SM-G920F,6.0.1,84884dd4-59f6-4656-9949-249df8f4bc67,HqZ8qNQO0Uyb4JGeFXR2nBHls/mHNaLBhpFfn4nH/wE=,1.1427994206991E+020,268,1,Vodafone,262,2,Vodafone,37.5,11027.425,48298.6950376885,-,-,131.159.193.52,131.159.193.52,54.216.74.160,0,100,8306,246168299,-,-,-,31,-51,-,-,-,-,-
2016-12-20 12:21:08,samsung,SM-G920F,6.0.1,84884dd4-59f6-4656-9949-249df8f4bc67,HqZ8qNQO0Uyb4JGeFXR2nBHls/mHNaLBhpFfn4nH/wE=,1.1427994206991E+020,268,1,Vodafone,262,2,Vodafone,36.7,5506.925,6480.749057789,-,-,131.159.193.52,131.159.193.52,54.78.38.85,0,100,8306,246168299,-,-,-,31,-51,-,-,-,-,-
2016-12-20 12:30:29,Sony,D5803,6.0.1,545c7945-6f55-4043-9ec7-14d60893e659,O9a6rkzrnqMp2GzHZATXU0mnzQSe/ld6dfkvtmASCBo=,1.1427994206991E+020,262,1,T-Mobile,262,1,T-Mobile,299.7,31.675,2.2707286432,48.2622237,11.66790512,10.75.231.3,80.187.104.35,54.216.74.160,15,61,17355,5927456,-,-,-,19,-75,-,-,-,-,-
2016-12-20 12:29:06,Sony,D5803,6.0.1,545c7945-6f55-4043-9ec7-14d60893e659,O9a6rkzrnqMp2GzHZATXU0mnzQSe/ld6dfkvtmASCBo=,1.1427994206991E+020,262,1,T-Mobile,262,1,T-Mobile,39,4529.525,38535.4334170854,48.262474,11.6681497,131.159.217.37,131.159.217.37,54.216.74.160,0,41,17355,5927456,-,-,-,13,-87,-,-,-,-,-
2016-12-20 11:51:09,samsung,SM-G920F,6.0.1,84884dd4-59f6-4656-9949-249df8f4bc67,HqZ8qNQO0Uyb4JGeFXR2nBHls/mHNaLBhpFfn4nH/wE=,1.1427994206991E+020,268,1,Vodafone,262,2,Vodafone,43,4604.1875,14116.7760678392,-,-,131.159.193.52,131.159.193.52,54.216.74.160,0,100,8306,246168303,-,-,-,31,-51,-,-,-,-,-
2016-12-20 11:15:08,Sony,D5803,6.0.1,545c7945-6f55-4043-9ec7-14d60893e659,O9a6rkzrnqMp2GzHZATXU0mnzQSe/ld6dfkvtmASCBo=,1.1427994206991E+020,262,1,T-Mobile,262,1,T-Mobile,36,6796.55,41931.8530150754,48.2623678,11.6684161,131.159.217.37,131.159.217.37,54.78.38.85,0,54,17186,11348,17,0,-93,-,-,-,-,-,-,-
2016-12-20 00:00:02,Apple,iPhone7.2,-,05640496F6714C57A9C4A9C76C9218ED,-,1.1427994206991E+020,262,2,Vodafone,262,2,Vodafone,116,18357,3601,-,-,192.168.1.6,77.47.113.10,54.216.74.160,0,-,null,null,-,-,-,-,-,-,-,-,-,-
2016-12-19 16:41:08,samsung,SM-G920F,6.0.1,84884dd4-59f6-4656-9949-249df8f4bc67,HqZ8qNQO0Uyb4JGeFXR2nBHls/mHNaLBhpFfn4nH/wE=,1.1427994206991E+020,268,1,Vodafone,262,2,Vodafone,75.1,1438.95,19501.5970477387,-,-,131.159.193.52,131.159.193.52,54.216.74.160,0,100,8306,246168299,-,-,-,31,-51,-,-,-,-,-
2016-12-19 16:11:09,samsung,SM-G920F,6.0.1,84884dd4-59f6-4656-9949-249df8f4bc67,HqZ8qNQO0Uyb4JGeFXR2nBHls/mHNaLBhpFfn4nH/wE=,1.1427994206991E+020,268,1,Vodafone,262,2,Vodafone,48.1,1642.575,11162.6617462312,-,-,131.159.193.52,131.159.193.52,54.216.74.160,0,100,8306,246168299,-,-,-,31,-51,-,-,-,-,-
2016-12-19 15:45:06,Sony,D5803,6.0.1,545c7945-6f55-4043-9ec7-14d60893e659,O9a6rkzrnqMp2GzHZATXU0mnzQSe/ld6dfkvtmASCBo=,1.1427994206991E+020,262,1,T-Mobile,262,1,T-Mobile,54.7,3516.75,1580.6532663317,48.1751411,11.5972469,192.168.10.17,79.227.227.252,54.216.74.160,0,22,17355,3475593,-,-,-,7,-99,-,-,-,-,-
2016-12-19 15:21:09,samsung,SM-G920F,6.0.1,84884dd4-59f6-4656-9949-249df8f4bc67,HqZ8qNQO0Uyb4JGeFXR2nBHls/mHNaLBhpFfn4nH/wE=,1.1427994206991E+020,268,1,Vodafone,262,2,Vodafone,51,1796.425,3058.0574748744,-,-,131.159.193.52,131.159.193.52,54.216.74.160,0,100,8306,246168299,-,-,-,31,-51,-,-,-,-,-
2016-12-19 14:51:09,samsung,SM-G920F,6.0.1,84884dd4-59f6-4656-9949-249df8f4bc67,HqZ8qNQO0Uyb4JGeFXR2nBHls/mHNaLBhpFfn4nH/wE=,1.1427994206991E+020,268,1,Vodafone,262,2,Vodafone,34.9,6792.025,78816.7760678392,-,-,131.159.193.52,131.159.193.52,54.78.38.85,0,100,8306,246168299,-,-,-,31,-51,-,-,-,-,-
2016-12-19 14:21:09,samsung,SM-G920F,6.0.1,84884dd4-59f6-4656-9949-249df8f4bc67,HqZ8qNQO0Uyb4JGeFXR2nBHls/mHNaLBhpFfn4nH/wE=,1.1427994206991E+020,268,1,Vodafone,262,2,Vodafone,33.9,8964.025,81248.0197864322,-,-,131.159.193.52,131.159.193.52,54.216.74.160,0,100,8306,246168299,-,-,-,31,-51,-,-,-,-,-
2016-12-19 13:46:39,samsung,SM-G920F,6.0.1,84884dd4-59f6-4656-9949-249df8f4bc67,HqZ8qNQO0Uyb4JGeFXR2nBHls/mHNaLBhpFfn4nH/wE=,1.1427994206991E+020,268,1,Vodafone,262,2,Vodafone,37.5,3425.425,66109.7958542714,-,-,131.159.193.52,131.159.193.52,54.216.74.160,0,100,8306,246168299,-,-,-,31,-51,-,-,-,-,-
2016-12-19 13:43:29,Apple,iPhone7.2,-,05640496F6714C57A9C4A9C76C9218ED,-,1.1427994206991E+020,262,2,Vodafone,262,2,Vodafone,37,4163,0,48.2625288399,11.6682353658,131.159.208.161,131.159.208.161,54.216.74.160,0,-,null,null,-,-,-,-,-,-,-,-,-,-
2016-12-19 13:08:45,Sony,D5803,6.0.1,545c7945-6f55-4043-9ec7-14d60893e659,O9a6rkzrnqMp2GzHZATXU0mnzQSe/ld6dfkvtmASCBo=,1.1427994206991E+020,262,1,T-Mobile,262,1,T-Mobile,35.3,6399.5625,32122.3712311558,48.2624841,11.6680504,131.159.217.37,131.159.217.37,54.216.74.160,0,0,17355,5907445,-,-,-,0,-113,-,-,-,-,-
2016-12-19 00:00:02,Apple,iPhone7.2,-,05640496F6714C57A9C4A9C76C9218ED,-,1.1427994206991E+020,262,2,Vodafone,262,2,Vodafone,54,22534,3674,-,-,192.168.1.6,77.47.113.10,54.78.38.85,0,-,null,null,-,-,-,-,-,-,-,-,-,-
2016-12-18 20:58:37,Sony,D5803,6.0.1,545c7945-6f55-4043-9ec7-14d60893e659,O9a6rkzrnqMp2GzHZATXU0mnzQSe/ld6dfkvtmASCBo=,1.1427994206991E+020,262,1,T-Mobile,262,1,T-Mobile,99.3,2479.5,1313.8190954774,48.1751411,11.5972469,192.168.10.17,79.227.227.252,54.216.74.160,0,0,17355,3475606,-,-,-,0,-113,-,-,-,-,-
2016-12-16 12:23:01,Sony,D5803,6.0.1,545c7945-6f55-4043-9ec7-14d60893e659,O9a6rkzrnqMp2GzHZATXU0mnzQSe/ld6dfkvtmASCBo=,1.1427994206991E+020,262,1,T-Mobile,262,1,T-Mobile,654.7,49.775,20.4365577889,48.22893824,11.62276749,10.24.215.49,80.187.118.46,54.216.74.160,2,35,17186,31097,11,0,-93,-,-,-,-,-,-,-
2016-12-18 20:07:22,samsung,SM-G920F,6.0.1,84884dd4-59f6-4656-9949-249df8f4bc67,HqZ8qNQO0Uyb4JGeFXR2nBHls/mHNaLBhpFfn4nH/wE=,1.1427994206991E+020,268,1,Vodafone,262,2,Vodafone,35.5,9298.875,40710.7239321608,-,-,192.168.1.106,141.84.69.88,54.216.74.160,0,100,48030,21250817,-,-,-,-,-,97,114,2,-9,4
2016-12-18 01:47:47,Apple,iPhone7.2,-,05640496F6714C57A9C4A9C76C9218ED,-,1.1427994206991E+020,262,2,Vodafone,262,2,Vodafone,64,27220,3567,-,-,192.168.1.6,77.47.113.10,54.216.74.160,0,-,null,null,-,-,-,-,-,-,-,-,-,-
2016-12-17 15:28:04,samsung,SM-G920F,6.0.1,84884dd4-59f6-4656-9949-249df8f4bc67,HqZ8qNQO0Uyb4JGeFXR2nBHls/mHNaLBhpFfn4nH/wE=,1.1427994206991E+020,268,1,Vodafone,262,2,Vodafone,49.6,16312.625,77547.0477386935,-,-,192.168.1.106,141.84.69.88,54.216.74.160,0,100,48030,21289985,-,-,-,-,-,97,117,2,-10,1
2016-12-17 11:07:22,Apple,iPhone7.2,-,05640496F6714C57A9C4A9C76C9218ED,-,1.1427994206991E+020,262,2,Vodafone,262,2,Vodafone,68,27030,4197,48.1460158015,11.5809941478,100.79.142.137,109.43.2.201,54.216.74.160,8,-,null,null,-,-,-,-,-,-,-,-,-,-
2016-12-17 11:03:40,Apple,iPhone7.2,-,05640496F6714C57A9C4A9C76C9218ED,-,1.1427994206991E+020,262,2,Vodafone,262,2,Vodafone,34,13267,30875,48.1466493477,11.5814401489,10.180.9.255,138.246.2.247,54.216.74.160,0,-,null,null,-,-,-,-,-,-,-,-,-,-
2016-12-16 18:10:04,Apple,iPhone7.2,-,05640496F6714C57A9C4A9C76C9218ED,-,1.1427994206991E+020,262,2,Vodafone,262,2,Vodafone,120,9343,353,48.2050098572,11.5873335488,100.79.142.137,109.43.2.201,54.216.74.160,8,-,null,null,-,-,-,-,-,-,-,-,-,-
2016-12-16 14:47:07,samsung,SM-G920F,6.0.1,84884dd4-59f6-4656-9949-249df8f4bc67,HqZ8qNQO0Uyb4JGeFXR2nBHls/mHNaLBhpFfn4nH/wE=,1.1427994206991E+020,268,1,Vodafone,262,2,Vodafone,149.3333333333,1187.8125,534.1284547739,48.2624536,11.6683482,131.159.193.52,131.159.193.52,54.216.74.160,0,100,8306,246168299,-,-,-,31,-51,-,-,-,-,-
2016-12-16 13:50:33,Apple,iPhone7.2,-,05640496F6714C57A9C4A9C76C9218ED,-,1.1427994206991E+020,262,2,Vodafone,262,2,Vodafone,78,13126,3660,48.2525419118,11.6497561801,192.168.1.6,77.47.113.10,54.216.74.160,0,-,null,null,-,-,-,-,-,-,-,-,-,-
2016-12-16 12:59:37,Apple,iPhone7.2,-,05640496F6714C57A9C4A9C76C9218ED,-,1.1427994206991E+020,262,2,Vodafone,262,2,Vodafone,55,19952,27370,48.2653184195,11.6702352541,10.177.2.232,138.246.2.47,54.216.74.160,0,-,null,null,-,-,-,-,-,-,-,-,-,-
2016-12-16 10:24:42,Sony,D5803,6.0.1,545c7945-6f55-4043-9ec7-14d60893e659,O9a6rkzrnqMp2GzHZATXU0mnzQSe/ld6dfkvtmASCBo=,1.1427994206991E+020,262,1,T-Mobile,262,1,T-Mobile,335.3,169.6875,64.2336683417,48.26242466,11.66767986,10.16.173.252,80.187.123.161,54.216.74.160,2,70,17186,11348,22,0,-67,-,-,-,-,-,-,-
2016-12-16 10:23:13,Apple,iPhone7.2,-,05640496F6714C57A9C4A9C76C9218ED,-,1.1427994206991E+020,262,2,Vodafone,262,2,Vodafone,140,13936,2384,48.2644976348,11.6593772465,100.79.142.137,109.43.2.201,54.216.74.160,8,-,null,null,-,-,-,-,-,-,-,-,-,-
2016-12-16 10:20:51,Apple,iPhone7.2,-,05640496F6714C57A9C4A9C76C9218ED,-,1.1427994206991E+020,262,2,Vodafone,262,2,Vodafone,34,11025,37850,48.2625353429,11.668236511,131.159.208.161,131.159.208.161,54.216.74.160,0,-,null,null,-,-,-,-,-,-,-,-,-,-
2016-12-16 10:19:07,Sony,D5803,6.0.1,545c7945-6f55-4043-9ec7-14d60893e659,O9a6rkzrnqMp2GzHZATXU0mnzQSe/ld6dfkvtmASCBo=,1.1427994206991E+020,262,1,T-Mobile,262,1,T-Mobile,38.2,3155.2625,38108.7264447236,48.2624841,11.6680504,131.159.217.37,131.159.217.37,54.78.38.85,0,0,17355,5907445,-,-,-,0,-113,-,-,-,-,-
